airport_iata,airport_icao,lat,lon,name,city,country
AEP,SABE,-34.5617,-58.4113,Aeroparque Jorge Newbery,Buenos Aires,Argentina
EZE,SAEZ,-34.82,-58.5333,Ministro Pistarini International Airport,Ezeiza,Argentina
MDZ,KMDZ,-32.8319,-68.7847,El Plumerillo Airport,Mendoza,Argentina
BRC,SAZS,-41.1511,-71.1581,San Carlos de Bariloche Airport,San Carlos DeBariloche,Argentina
USH,SAWH,-54.8176,-68.326,Ushuaia Airport,Ushuaia,Argentina
AUA,TNCA,12.5022,-70.0139,Reina Beatrix International Airport,Aruba,Aruba
SYD,YSSY,-33.9344,151.168,Kingsford Smith Airport,Sydney,Australia
KLU,LOWK,46.6428,14.3429,Klagenfurt Airport,Celovec,Austria
GRZ,LOWG,46.9902,15.4389,Graz Airport,Feldkirchen,Austria
INN,LOWI,47.2591,11.3566,Innsbruck Airport,Innsbruck,Austria
VIE,LOWW,48.1036,16.5804,Vienna Schwechat International Airport,Klein-Neusiedl,Austria
NAS,MYNN,25.0406,-77.4719,Nassau International Airport,Nassau,Bahamas
LPB,SLLP,-16.5094,-68.1906,El Alto International Airport,La Paz,Bolivia
AFL,SBAT,-9.8661,-56.1044,Alta Floresta Airport,Alta Floresta,Brazil
ATM,SBHT,-3.2506,-52.2517,Altamira Airport,Altamira,Brazil
AJU,SBAR,-10.985,-37.0733,Santa Maria Airport,Aracaju,Brazil
ARU,SBAU,-21.1436,-50.4261,Aracatuba Airport,Araçatuba,Brazil
AAX,SBAX,-19.5603,-46.9653,Romeu Zuma Airport,Araxá,Brazil
BAU,SBBU,-22.345,-49.0531,Bauru Airport,Bauru,Brazil
BEL,SBBE,-1.3844,-48.4783,Val de Caes International Airport,Belem,Brazil
PLU,SBBH,-19.8517,-43.9508,Pampulha Airport,Belo Horizonte,Brazil
BVB,SBBV,2.8417,-60.6917,Boa Vista International Airport,Boa Vista,Brazil
CPV,SBKG,-7.2689,-35.8947,Presidente Joao Suassuna Airport,Campina Grande,Brazil
VCP,SBKP,-23.0067,-47.1344,Viracopos International Airport,Campinas,Brazil
CGR,SBCG,-20.475,-54.6736,Campo Grande International Airport,Campo Grande,Brazil
XAP,SBCH,-27.1325,-52.6611,Chapeco Airport,Chapeco,Brazil
CNF,SBCF,-19.6242,-43.9717,Tancredo Neves International Airport,Confins,Brazil
CMG,SBCR,-19.0055,-57.7055,Corumba International Airport,Corumba,Brazil
CGB,SBCY,-15.6497,-56.1169,Marechal Rondon International Airport,Cuiaba,Brazil
FOR,SBFZ,-3.7758,-38.5322,Pinto Martins International Airport,Fortaleza,Brazil
IGU,SBFI,-25.5958,-54.4864,Cataratas International Airport,Foz do Iguacu,Brazil
GRU,SBGR,-23.435,-46.4728,Governador Andre Franco Montoro International Ai,Guarulhos,Brazil
BSB,SBBR,-15.8622,-47.9122,Juscelino Kubitschek International Airport,Lago Sul,Brazil
MCZ,KMCZ,-9.5117,-35.8,Zumbi dos Palmares International Airport,Maceio,Brazil
MAO,KMAO,-3.0392,-60.0469,Eduardo Gomes International Airport,Manaus,Brazil
NAT,SBNT,-5.84694,-35.2145,Augusto Severo International Airport,Natal,Brazil
POA,SBPA,-29.9933,-51.1708,Salgado Filho International Airport,Porto Alegre,Brazil
BPS,SBPS,-16.4406,-39.0833,Porto Seguro Airport,Porto Seguro,Brazil
REC,SBRF,-8.1261,-34.9225,Gilberto Freyre International Airport,Recife,Brazil
GIG,SBGL,-22.8094,-43.25,Rio de Janeiro-Antonio Carlos Jobim Internationa,Rio de Janeiro,Brazil
SDU,SBRJ,-22.9107,-43.1707,Santos Dumont Airport,Rio de Janeiro,Brazil
SSA,SBSV,-12.9081,-38.3222,Deputado Luis Eduardo Magalhaes International Ai,Salvador,Brazil
RIA,KRIA,-29.7106,-53.6875,Santa Maria Airport,Santa Maria,Brazil
JPA,SBJP,-7.1481,-34.9506,Presidente Castro Pinto International Airport,Santa Rita,Brazil
CWB,SBCT,-25.5275,-49.1731,Afonso Pena International Airport,Sao Jose dos Pinhais,Brazil
CGH,SBSP,-23.6285,-46.6589,Congonhas International Airport,Sao Paulo,Brazil
VIX,SBVT,-20.2578,-40.2864,Goiabeiras Airport,Vitoria,Brazil
YYC,CYYC,51.1343,-114.007,Calgary International Airport,Calgary,Canada
YUL,CYUL,45.4562,-73.7473,Aéroport International Pierre-Elliott-Trudeau d,Dorval,Canada
YYZ,CYYZ,43.685,-79.6142,Toronto Lester B Pearson International Airport,Mississauga,Canada
YOW,CYOW,45.3248,-75.6666,Ottawa International Airport,Ottawa,Canada
CXH,CYHC,49.5912,-125.848,Coal Harbour Airport,Vancouver,Canada
SCL,SCEL,-33.39,-70.785,Arturo Merino Benitez International Airport,Lo Amor,Chile
PVG,KPVG,31.1156,121.803,Pudong International Airport,Huinan,China
JJN,ZBDX,24.9,118.583,Jinjiang,Jinjiang,China
JUZ,ZUJZ,36.8945,104.166,Juzhou,Juzhou,China
KMG,ZPPP,24.966,102.733,Wuchia Pa Airport,Kunming,China
LHW,KLHW,36.0167,103.75,Lanzhou Airport,Lanzhou,China
LXA,ZULS,29.6355,91.1646,Lhasa,Lhasa,China
LUM,KLUM,24.4833,98.5167,Mangshi,Luxi,China
NKG,ZSNG,32.0833,118.8,Nanjing Lukou International Airport,Nanjing,China
SHA,ZSSS,31.1865,121.34,Hongqiao Airport,Shanghai,China
SHE,ZYTX,41.7857,123.529,Dongta Airport,Shenyang,China
PEK,ZBAA,40.0724,116.583,Beijing Capital Airport,Shunyi,China
URC,ZWWW,43.9333,87.4667,Diwopu Airport,Urumqi,China
TAO,ZSQD,36.2311,120.389,Liuting Airport,Wanggezhuang,China
WUH,ZHHH,30.5069,114.31,Wuchang Nanhu Airport,Wuhan,China
XMN,ZSAM,24.5333,118.117,Xiamen Airport,Xiamen,China
XIY,ZLXY,34.3667,108.7,Hsien Yang Airport,Xianyang,China
XIC,ZUXC,27.9935,102.179,Xichang North Airport,Xichang,China
CGO,ZHCC,34.75,113.65,Zhengzhou Airport,Zhengzhou,China
AUC,SKUC,7.0703,-70.7406,Santiago Perez Airport,Arauca,Colombia
EJA,SKEJ,7.025,-73.8092,Yariguies Airport,Barrancabermeja,Colombia
BGA,SKBG,7.1217,-73.1883,Palonegro Airport,Bucaramanga,Colombia
BUN,SKBU,3.8183,-76.9931,Buenaventura Airport,Buenaventura,Colombia
CUC,SKCC,7.93,-72.5094,Camilo Daza Airport,Cúcuta,Colombia
BOG,SKBO,4.69895,-74.1435,Eldorado International Airport,Fontibón,Colombia
GPI,KGPI,2.5806,-77.9083,Guapi Airport,Guapí,Colombia
CTG,SKCG,10.4481,-75.5106,Rafael Nunez Airport,La Boquilla,Colombia
AXM,SKAR,4.4564,-75.7681,El Eden Airport,La Tebaida,Colombia
EOH,SKMD,6.2231,-75.5886,Olaya Herrera Airport,Medellin,Colombia
CLO,SKCL,3.5461,-76.385,Alfonso Bonilla Aragon International Airport,Obando,Colombia
PEI,SKPE,4.8147,-75.745,Matecana Airport,Pereira,Colombia
MDE,SKRG,6.1675,-75.4267,Jose Maria Cordova Airport,Ríonegro,Colombia
ADZ,SKSP,12.5811,-81.7092,Sesquicentenario Airport,San Andrés,Colombia
BAQ,SKBQ,10.8961,-74.7789,Ernesto Cortissoz Airport,Soledad,Colombia
SJO,MROC,9.9919,-84.2114,Juan Santamaria International Airport,Heredia,Costa Rica
LIR,MRLB,10.5922,-85.5439,Tomas Guardia International Airport,Liberia,Costa Rica
PLD,KPLD,9.88107,-85.5507,Playa Samara Airport,Nicoya,Costa Rica
PMZ,KPMZ,8.9531,-83.4703,Palmar Sur Airport,Palmar Sur,Costa Rica
XQP,MRQP,9.4442,-84.1311,Quepos Managua Airport,Quepos,Costa Rica
CYO,KCYO,21.6169,-81.5422,Cayo Largo del sur Airport,Cayo Largo Del Sur,Cuba
GAO,KGAO,20.143,-75.209,Cuba,Guantanamo,Cuba
HOG,MUHG,20.7853,-76.315,Holguin Airport,San Pedro de Cacocum,Cuba
VRA,MUVR,23.0306,-81.4367,Varadero Airport,Varadero,Cuba
HAV,MUHA,22.9894,-82.4075,Jose Marti International Airport,Wajay,Cuba
SCU,MUCU,19.9708,-75.8364,Antonio Maceo Airport,,Cuba
BRQ,LKTB,49.1535,16.6908,Turany Airport,Brno,Czech Republic
KLV,LKKV,50.2009,12.9149,Karlovy Vary Airport,Carlsbad,Czech Republic
OSR,LKMT,49.6888,18.1178,Mosnov Airport,Mošnov,Czech Republic
PED,LKPD,50.0372,15.7785,Pardubice,Pardubice,Czech Republic
PRG,KPRG,50.1079,14.2675,Prague Ruzyne Airport,Prague 6,Czech Republic
FIH,FZAA,-4.3847,15.445,Kinshasa N Djili International Airport,Kinshasa,Democratic Republic of Congo
BLL,EKBI,55.742,9.15354,Billund Airport,Billund,Denmark
EBJ,EKEB,55.5247,8.55388,Esbjerg Airport,Esbjerg,Denmark
KRP,EKKA,56.3028,9.1141,Karup Airport,Kårup,Denmark
CPH,EKCH,55.6205,12.6495,Copenhagen Airport,Kastrup,Denmark
AAR,EKAH,56.3088,10.6154,Tirstrup Airport,Kolind,Denmark
AAL,EKYT,57.0952,9.85606,Aalborg Airport,Norresundby,Denmark
RNN,EKRN,55.0681,14.7472,Bornholm Airport,Ronne,Denmark
SGD,EKSB,54.963,9.78978,Sonderborg Airport,Sonderborg,Denmark
JIB,HDAM,11.5467,43.1592,Djibouti Ambouli Airport,Djibouti City,Djibouti
DOM,TDPD,15.5431,-61.3092,Melville Hall Airport,Marigot,Dominica
DCF,TDCF,15.5333,-61.4,Cane Field Airport,Portsmouth,Dominica
STI,MDST,19.4692,-70.7003,Cibao International Airport,La Lomota,Dominican Republic
LRM,MDLR,18.4103,-68.9417,La Romana Airport,La Romana,Dominican Republic
PUJ,MDPC,18.5675,-68.3469,Punta Cana Airport,Salvaleón de Higüey,Dominican Republic
AZS,MDEP,19.2099,-69.3279,Samana El Catey International Airport,Samana,Dominican Republic
POP,MDPP,19.7575,-70.5692,Puerto Plata International Airport,San Felipe de Puerto Plata,Dominican Republic
SDQ,MDSD,18.4292,-69.6692,De Las Americas International Airport,Santo Domingo,Dominican Republic
CUE,SECU,-2.8867,-78.9833,Mariscal Lamar Airport,Cuenca,Ecuador
GYE,SEGU,-2.1533,-79.8833,Simon Bolivar International Airport,Guayaquil,Ecuador
UIO,SEQU,-0.1381,-78.4833,Mariscal Sucre International Airport,Quito,Ecuador
SNC,KSNC,-2.2,-80.985,General Ulpiano Paez Airport,Salinas,Ecuador
XMS,SEMC,-2.335,-78.1669,Macas Airport,Zúñac,Ecuador
ABS,HEBL,22.3722,31.6125,Abu Simbel Airport,Abu Simbel,Egypt
SSH,HESH,27.975,34.3897,Ras Nasrani Airport,Al Arish,Egypt
ALY,HEAX,31.1845,29.9491,An-Nuzhah Airport,Alexandria,Egypt
ASW,HESN,23.965,32.8217,Aswan Airport,Aswan,Egypt
ATZ,HEAT,27.0411,31.0114,Asyut Airport,Asyut,Egypt
HRG,HEGN,27.1858,33.7981,Hurghada Airport,Bor Safajah,Egypt
CAI,HECA,30.1206,31.4078,Cairo International Airport,Cairo,Egypt
SAL,MSLP,13.44,-89.0558,El Salvador International Airport,San Luis,El Salvador
SSG,FGSL,3.7472,8.7083,Malabo Airport,Malabo,Equatorial Guinea
ASM,HHAS,15.2906,38.9103,Yohannes Iv International Airport,Asmara,Eritrea
KDL,EEKA,59.0013,22.8181,Kardla East Airport,Kerdlya,Estonia
URE,EEKE,58.2432,22.5041,Kuressarre Airport,Kingissepa,Estonia
TLL,EETN,59.4121,24.8297,Ulemiste Airport,Tallinn,Estonia
ADD,HAAB,8.9783,38.8011,Bole International Airport,Addis Ababa,Ethiopia
AMH,HAAM,6.01327,37.5405,Ethiopia,Arba Mintch,Ethiopia
ASO,HASO,10.0611,34.5344,Ethiopia,Asosa,Ethiopia
ASA,HHSB,31.4124,-97.0528,Assab,Assab,Ethiopia
AXU,HAAX,14.147,38.7726,Axum,Axum,Ethiopia
DIR,HADR,9.6244,41.8536,Aba Tenna Dejazmatch Yilma Airport,Dire Dawa,Ethiopia
JIJ,HAJJ,9.34587,42.7955,Jijiga,Jijiga,Ethiopia
JIM,HAJM,32.3834,-81.8349,,Jimma,Ethiopia
ABK,HAKD,6.73719,44.2797,Kabri Dar,Kabri Dar,Ethiopia
MPN,EGYP,-51.8222,-58.4417,Mount Pleasant Airport,Mount Pleasant,Falkland Islands
FAE,EKVG,62.0625,-7.2708,Vagar Airport,Faroe Islands,Faroe Islands
KXF,NFNO,-17.3167,179.383,Koro Island,Koro Island,Fiji
MNF,KMNF,-17.6611,177.119,Mana Island Airstrip,Mana Island,Fiji
NAN,NFFN,-17.7558,177.446,Nadi International Airport,Nadi,Fiji
HEL,EFHK,60.3243,24.9688,Helsinki Vantaa Airport,Vantaa,Finland
QXB,LFMA,43.5048,5.36794,Aix Les Milles Airport,Aix-les-milles,France
AJA,LFKJ,41.9204,8.79778,Campo Dell Oro Airport,Ajaccio,France
BIQ,LFBZ,43.472,-1.53137,Anglet Airport,Anglet,France
CFE,LFLC,45.7896,3.16013,Aulnat Airport,Aulnat,France
AUR,LFLW,44.8984,2.41982,Aurillac Airport,Aurillac,France
AVN,LFMV,43.9056,4.89951,Avignon-Caumont Airport,Avignon,France
MLH,LFSB,47.5998,7.53134,Bale Mulhouse Airport,Basel Mulhouse Freiburg,France
BVA,LFOB,49.4565,2.11552,Beauvais-Tille Airport,Beauvais,France
EGC,LFBE,44.8227,0.51524,Bergerac-Roumaniere Airport,Bergerac,France
TLS,LFBO,43.6294,1.3747,Blagnac Airport,Blagnac,France
BIA,LFKB,42.5497,9.48341,Poretta Airport,Borgo,France
NTE,LFRS,47.1573,-1.60205,Chateau Bougon Airport,Bouguenais,France
CLY,LFKC,42.5295,8.79677,Ste Catherine Airport,Calenzana,France
CCF,LFMK,43.2153,2.30989,Salvaza Airport,Carcassonne,France
CFR,LFRK,49.1825,-0.45906,Carpiquet Airport,Carpiquet,France
ANG,LFBU,45.7274,0.21835,Brie Champniers Airport,Champniers,France
LYS,LFLL,45.7198,5.08245,Lyon Airport,Colombier,France
SXB,LFST,48.5427,7.63466,Entzheim Airport,Entzheim,France
FSC,LFKF,41.5022,9.0968,Sud Corse Airport,Figari,France
BES,LFRB,48.4458,-4.41511,Guipavas Airport,Guipavas,France
LDE,LFBT,43.1857,0.00346,Ossun Airport,Juillan,France
CMF,LFLB,45.6375,5.88291,Aix les Bains Airport,La Motte,France
DCM,LFCK,43.5538,2.28923,Mazamet Airport,Labruguière,France
AGF,LFBA,44.1736,0.59223,La Garenne Airport,Laplume,France
LEH,LFOH,40.3897,-111.847,,Le Havre,France
CDG,LFPG,49.0175,2.5564,Charles de Gaulle International Airport,Le Mesnil-Amelot,France
PUF,LFBP,43.3823,-0.4166,Pont Long Uzein Airport,Lescar,France
LIG,LFBL,45.8615,1.1779,Bellegarde Airport,Limoges,France
MRS,LFML,43.4411,5.22087,Marignane Airport,Marignane,France
MPL,LFMT,43.5807,3.96039,Frejorgues Airport,Mauguio,France
BOD,LFBD,44.8291,-0.70278,Bordeaux Airport,Merignac,France
NCE,LFMN,43.6638,7.21286,Nice-Cote d'Azur Airport,Nice,France
ORY,LFPO,48.7261,2.36411,Paris Orly Airport,Paris,France
PGF,LFMP,42.74,2.8692,Rivesaltes Airport,Perpignan,France
DNR,LFRD,48.589,-2.07757,Pleurtuit Airport,Pleurtuit,France
LRT,LFRH,47.7545,-3.43763,Lann Bihoue Airport,Ploemeur,France
NCY,LFLP,45.931,6.10666,Meythet Airport,Pringy,France
ANE,LFRA,47.5603,-0.312222,Aéroport d'Angers-Marcé,Seiches-sur-le-Loir,France
GNB,KGNB,45.3614,5.33214,St Geoirs Airport,Sillans,France
FNI,LFTW,43.7618,4.42092,Garons Airport,St-Gilles-du-Gard,France
RNS,LFRN,48.0686,-1.72536,St Jacques Airport,St-Jacques,France
BSL,LFSB,47.5998,7.532,Euroairport Basel-Mulhouse-Freiburg,St-Ludwig,France
PGX,LFBX,45.1951,0.81208,Bassillac Airport,St-Pierre,France
TUF,LFOT,47.428,0.72414,St Symphorien Airport,Tours,France
BZR,LFMU,43.3229,3.35466,Vias Airport,Villeneuve,France
PIS,LFBI,46.5859,0.31135,Biard Airport,Vouneuil-sous-Biard,France
CAY,SOCA,4.93333,-52.3333,Rochambeau,Cayenne,French Guiana
PPT,NTAA,-17.5578,-149.611,Tahiti Faaa Airport,Papeete,French Polynesia
AOC,EDAC,50.9794,12.5111,Altenburg Nobitz,Altenburg,Germany
TXL,EDDT,52.5548,13.289,Berlin-Tegel International Airport,Berlin,Germany
THF,EDDI,52.4825,13.3892,Tempelhof Central Airport,Berlin,Germany
BFE,KBFE,52,8.5,Bielefeld,Bielefeld,Germany
BWE,EDVE,52.3165,10.5595,Braunschweig Airport,Braunschweig,Germany
BRE,EDDW,53.0523,8.78533,Bremen Airport,Bremen,Germany
PAD,EDLP,51.6126,8.61871,Paderborn-Lippstadt Airport,Büren,Germany
CGN,EDDK,50.8784,7.12293,Cologne Bonn Airport,Cologne,Germany
HHN,EDFH,49.9454,7.26851,Frankfurt-Hahn Airport,Dickenschied,Germany
DTM,EDLW,51.5123,7.60451,Dortmund Airport,Dortmund,Germany
DUS,EDDL,51.2794,6.76481,Dusseldorf International Airport,Dusseldorf,Germany
ERF,EDDE,50.9754,10.9626,Erfurt Airport,Erfurt,Germany
FRA,EDDF,50.0483,8.57041,Frankfurt International Airport,Frankfurt,Germany
FMO,EDDG,52.1312,7.69163,Munster-Osnabruck International Airport,Greven,Germany
XFW,EDHI,53.5356,9.8342,Finkenwerder Airport,Hamburg,Germany
HAM,EDDH,53.6321,10.0042,Hamburg Airport,Hamburg,Germany
HEI,KHEI,54.153,8.89555,Heide-Busum Airport,Heide-Buesum,Germany
HDB,EDIU,49.4167,8.71667,Heidelberg Airport,Heidelberg,Germany
HOQ,EDQM,50.2893,11.866,Hof-Plauen Airport,Hof,Germany
HAJ,EDDV,52.4586,9.69459,Hannover International Airport,Langenhagen,Germany
FDH,EDNY,47.6747,9.52088,Friedrichshafen Airport,Meckenbeuren,Germany
NUE,EDDN,49.4946,11.0785,Nurnberg Airport,Nuremberg,Germany
MUC,EDDM,48.354,11.7816,Franz-Josef-Strauss Airport,Oberding,Germany
DRS,EDDC,51.1688,13.7899,Ottendorf Okrilla Highway Strip Airport,Ottendorf-Okrilla,Germany
FKB,EDSB,48.781,8.08678,Baden-Airpark,Rheinmünster,Germany
RLG,ETNL,46.7427,-96.2383,,Rostock-laage,Germany
SCN,EDDR,49.2188,7.11263,Saarbrucken Airport,Sarrebruck,Germany
LEJ,EDDP,51.4197,12.2201,Leipzig-Halle Airport,Schkeuditz,Germany
SXF,EDDB,52.3886,13.5188,Berlin-Schonefeld International Airport,Schönefeld,Germany
STR,EDDS,48.6895,9.19298,Stuttgart Airport,Stuttgart,Germany
NRN,KNRN,51.6031,6.1417,Airport Weeze,Weeze,Germany
ACC,DGAA,5.5964,-0.17,Kotoka International Airport,Accra,Ghana
AXD,LGAL,40.8567,25.9567,Alexandroupolis Airport,Alexandroupolis,Greece
KGS,LGKO,36.7956,27.0917,Kos Airport,Antimacheia,Greece
ATH,LGAV,37.8937,23.7235,Eleftherios Venizelos International Airport,Athens,Greece
CHQ,LGSA,35.5319,24.1489,Souda Airport,Canea,Greece
CFU,LGKR,39.6013,19.9136,Kerkira Airport,Corcyra,Greece
IOA,LGIO,39.6967,20.8258,Ioannina Airport,Ioannina,Greece
HER,LGIR,35.3397,25.1836,Iraklion Airport,Iraklio,Greece
AOK,LGKP,35.4239,27.1472,Karpathos Airport,Karpathos,Greece
JKH,LGHI,38.345,26.1417,Chios Airport,Khios,Greece
KZI,LGKZ,40.2886,21.8419,Kozani Airport,Kozani,Greece
GPA,LGRX,38.1519,21.4272,Araxos Airport,Lakkopetra,Greece
PAS,LGPA,37.0683,25.1975,Paros Island Airport,Levkai,Greece
JNX,KJNX,37.1,25.3833,Naxos Airport,Naxos,Greece
PVK,LGPZ,38.9261,20.7667,Preveza Airport,Paliambela,Greece
RHO,LGRP,36.4044,28.0867,Paradisi Airport,Rodhos,Greece
SKG,LGTS,40.5208,22.9722,Thessaloniki Airport,Thessaloniki,Greece
ZTH,LGZA,37.7522,20.8847,Zakinthos Airport,Zante,Greece
LLU,KLLU,60.5,-45.5833,Alluitsup Paa Airport,Alluitsup Paa,Greenland
AGM,BGAM,65.6667,-37.6667,Angmagssalik Airport,Angmassalik,Greenland
CNP,KCNP,70.7431,-22.6583,Neerlerit Inaat,Neerlerit Inaat,Greenland
GOH,BGGH,64.1922,-51.6825,Godthaab Airport,Nuuk,Greenland
THU,BGTL,76.53,-68.7058,Pituffik,Pituffik,Greenland
JJU,BGQE,60.7483,-46.0317,Julianehab Heliport,Qaqortoq,Greenland
JUV,BGUK,72.8,-56.15,Upernavik Heliport,Upernavik,Greenland
GND,TGPY,12.0056,-61.7867,Point Salines International Airport,Grenada,Grenada
PTP,TFFR,16.2675,-61.5281,Le Raizet Airport,Les Abymes,Guadeloupe
FRS,MGTK,16.9139,-89.8664,Santa Elena Airport,Flores,Guatemala
GUA,MGGT,14.5819,-90.5275,La Aurora Airport,Guatemala City,Guatemala
CKY,GUCY,9.5764,-13.6108,Conakry Airport,Conakry,Guinea
OXB,KOXB,11.8886,-15.6575,Bissau Oswaldo Vieira Airport,Bissau,Guinea-Bissau
GEO,SYCJ,6.5003,-58.2542,Timehri International Airport,Hyde Park,Guyana
PAP,MTPP,36.4215,-83.3607,,Port Au Prince,Haiti
RTB,MHRO,16.3242,-86.5323,Roatan Island Airport,Roatán,Honduras
SAP,MHLM,15.4514,-87.9242,La Mesa International Airport,San Pedro Sula,Honduras
TGU,MHTG,14.0603,-87.2172,Toncontin International Airport,Tegucigalpa,Honduras
HKG,VHHH,22.3124,113.929,Hong Kong International Airport,Hong Kong,Hong Kong
BUD,LHBP,47.4453,19.2195,Ferihegy Airport,Budapest,Hungary
AEY,BIAR,65.6561,-18.0923,Akureyri Airport,Akureyri,Iceland
KEF,BIKF,63.9853,-22.6042,Keflavik International,Reykjavik,Iceland
RKV,BIRK,64.1311,-21.9389,Reykjavik Airport,Reykjavik,Iceland
AGX,VOAT,10.8415,72.175,Agatti Island Airport,Agatti Island,India
AGR,VIAG,27.1632,77.9788,Agra Airport,Agra,India
AMD,VAAH,23.0728,72.6328,Sardar Vallabhbhai Patel International Airport,Ahmedabad,India
AJL,VEAZ,23.7361,92.8083,Aizwal Airport,Aizawl,India
IXD,VIAL,25.4397,81.7361,Bamrauli Airport,Allahabad,India
IXU,VAAU,19.8698,75.386,Aurangabad Airport,Aurangabad,India
IXB,VEBD,26.7333,88.3333,Bagdogra Airport,Bagdogra,India
RPR,VARP,21.1671,81.7473,Raipur Airport,Banarsi,India
BLR,VOBG,12.9526,77.6656,HAL Bangalore International Airport,Bangalore,India
IXC,VICG,30.6751,76.7973,Chandigarh Airport,Bhabat,India
BHO,VABP,23.2844,77.3383,Bairagarh Airport,Bhopal,India
BBI,VEBS,20.2466,85.8152,Bhubaneswar Airport,Bhubaneswar,India
BHJ,VABJ,23.2875,69.6706,Bhuj Airport,Bhuj,India
DED,VIDN,30.3167,78.0333,Dehra Dun,Dehra Dun,India
DIB,VEMN,27.4839,95.0208,Mohanbari Airport,Dikhari,India
DMU,VEMR,25.8839,93.7736,Dimapur Airport,Dimapur,India
DIU,VA1P,20.7134,70.9217,Diu Airport,Diu,India
IXY,VAKE,23.1119,70.1011,Kandla Airport,Gandhidham,India
IXA,VEAT,23.89,91.2422,Agartala Airport,Gandhigram,India
GAU,VEGT,26.0857,91.5669,Borjhar,Gawahati,India
GAY,VEGY,24.7443,84.9493,Gaya Airport,Gaya,India
GOP,KGOP,22.5552,88.3685,Gorakhpur,Gorakhpur,India
IXM,VOMD,9.83543,78.0964,Madurai Airport,Harveypatti,India
HYD,VOHY,17.4522,78.4629,Begumpet Airport,Hyderabad,India
IDR,VAID,22.7197,75.807,Devi Ahilyabai Holkar International Airport,Indore,India
JAI,VIJP,26.8165,75.8128,Sanganer Airport,Jaipur,India
IXJ,VIJU,32.6917,74.8375,Jammu Airport,Jammu Cantt,India
IXW,VEJS,22.8167,86.1667,Sonari Airport,Jamshedpur,India
MAA,VOMM,12.9849,80.1634,Chennai International Airport,Kanchipuram,India
IXG,VABM,15.8581,74.6189,Belgaum Airport,Kangrali,India
COK,VOCC,9.93997,76.2748,Kochi Airport,Kochi,India
CCU,VECC,22.6572,88.4506,Netaji Subhash Chandra Bose International Airpor,Kolkata,India
IXL,VILH,34.1667,77.5833,Leh Airport,Leh,India
IXI,VELR,21.7866,82.7948,India,Lilabari,India
IXE,VOML,12.9812,74.8992,Mangalore Airport,Mulur,India
BOM,VABB,19.0932,72.8654,Chhatrapati Shivaji International Airport,Mumbai,India
DEL,VIDP,28.5603,77.1027,Indira Gandhi International Airport,New Delhi,India
CCJ,VOCL,11.1329,75.9536,Kozhikode Airport,Pallikkal,India
PAT,VEPT,25.5914,85.0866,Lok Nayak Jaiprakash Airport,Patna,India
IXZ,VOPB,11.692,92.7097,Vir Savarkar Airport,Port Blair,India
ATQ,VIAR,31.7131,74.7955,Raja Sansi Airport,Raja Sansi,India
IXR,VERC,23.3066,85.3353,Birsa Munda Airport,Ranchi,India
JRH,VEJT,26.7286,94.1778,Jorhat Airport,Senchoa Gaon,India
SHL,KSHL,25.5667,91.8833,,Shillong,India
IXS,VEKU,24.9667,92.5167,Kumbhirgram Airport,Tarapur,India
TRV,VOTV,8.47824,76.9215,Thiruvananthapuram Airport,Thiruvananthapuram,India
BDQ,VABO,22.3367,73.2264,Vadodara Airport,Vadodara,India
AMQ,WAPP,-3.7067,128.078,Pattimura Airport,Ambon,Indonesia
BPN,WALL,-1.2681,116.897,Sepinggan Airport,Balikpapan,Indonesia
BDO,WICC,-6.9017,107.576,Husein Sastranegara Airport,Bandung,Indonesia
BDJ,WRBB,-3.4425,114.757,Syamsuddin Noor Airport,Banjarmasin,Indonesia
BKS,KBKS,-3.8633,102.339,Padangkemiling Airport,Bengkulu,Indonesia
DPS,WADD,-8.7486,115.165,Bali International Airport,Denpasar,Indonesia
DIL,WPDL,-8.5533,125.526,Comoro,Dili,Indonesia
DJB,WIPA,-1.6369,103.639,Sultan Taha Airport,Jambi,Indonesia
DJJ,WAJJ,-2.575,140.514,Sentani Airport,Jayapura,Indonesia
AMI,WRRA,-8.562,116.098,Selaparang,Mataram,Indonesia
MES,WIMM,3.5606,98.6708,Polonia Airport,Medan,Indonesia
PDG,WIPT,-0.8794,100.352,Tabing Airport,Padang,Indonesia
PLM,WIPP,-2.9003,104.698,Sultan Mahmud Badaruddin Ii Airport,Palembang,Indonesia
PKU,WIBB,0.4642,101.439,Simpang Tiga Airport,Pekanbaru,Indonesia
PNK,WIOO,-0.1481,109.403,Supadio Airport,Pontianak,Indonesia
SRG,WARS,-6.9758,110.38,Achmad Yani Airport,Semarang,Indonesia
SUB,WARR,-7.38,112.785,Juanda Airport,Sidoarjo,Indonesia
CGK,WIII,-6.11964,106.656,Jakarta International Airport,Tangerang,Indonesia
TRK,KTRK,3.3258,117.567,Tarakan Airport,Tarakan,Indonesia
WGP,WRRW,-9.6722,120.308,Mau Hau Airport,Waingapu,Indonesia
ABD,OIAA,30.3374,48.3032,,Abadan,Iran
AWZ,OIAW,31.3378,48.7597,Ahvaz Airport,Ahvaz,Iran
ADU,OITL,38.2465,48.2951,Ardabil Airport,Ardabil,Iran
PGU,OIBI,36.9243,-111.451,Page Municipal Airport,Asalouyeh,Iran
BUZ,OIBB,28.9494,50.8311,Bushehr Airport,Bandar-e Bushehr,Iran
XBJ,OIMB,32.8983,59.2631,Birjand Airport,Birjand,Iran
JYR,KJYR,28.7244,57.6683,Jiroft,Jiroft,Iran
KSH,OICC,34.3489,47.1572,Bakhtaran Airport,Kermanshah,Iran
RAS,KRAS,37.3256,49.6092,Rasht Airport,Rasht,Iran
ACP,KACP,68.1609,-151.696,Sahand Airport,Sahand,Iran
SYZ,OISS,29.54,52.5897,Shiraz International Airport,Shiraz,Iran
TBZ,OITT,38.1322,46.2431,Tabriz Airport,Tabriz,Iran
IKA,OIIE,35.5683,51.4436,Imam Khomeini International Airport,Tehran,Iran
THR,OIII,35.6908,51.3144,Mehrabad International Airport,Tehran,Iran
OMH,KOMH,37.6694,45.0703,Uromiyeh Airport,Urmieh,Iran
AZD,OIYY,31.905,54.2786,Yazd Airport,Yezd,Iran
ACZ,KACZ,31.0385,61.4962,Zabol A/P,Zabol,Iran
EBL,ORER,36.1797,44.016,Erbil,Erbil,Iraq
GWY,EICM,53.3016,-8.94049,Carnmore Airport,Carnmore,Ireland
DUB,EIDW,53.4272,-6.24418,Dublin Airport,Cloghran,Ireland
KIR,EIKY,52.1767,-9.5333,Kerry County Airport,Farranfore,Ireland
ORK,EICK,51.8463,-8.48897,Cork Airport,Fivemilebridge,Ireland
NOC,EIKN,53.9133,-8.81129,Connaught Airport,Knock,Ireland
SXL,EISG,54.275,-8.6,Sligo Airport,Larass,Ireland
CFN,EIDL,55.0416,-8.3436,Carrickfin Airport,Mullaghduff,Ireland
SNN,EINN,52.6931,-8.92047,Shannon Airport,Shannon Airport,Ireland
WAT,EIWF,52.1972,-7.0889,Waterford Airport,Waterford,Ireland
ETH,LLET,29.5541,34.9554,J Hozman Airport,Elat,Israel
VDA,LLOV,29.9528,34.9583,Ovda Airport,Ovda,Israel
TLV,LLBG,32.0117,34.8861,Ben Gurion Airport,Petaẖ Tiqwa,Israel
AHO,LIEA,40.6319,8.29279,Alghero Airport,Alghero,Italy
BRI,LIBD,41.1376,16.7674,Palese Macchie Airport,Bari,Italy
BLQ,LIPE,44.5345,11.2903,Bologna Airport,Bologna,Italy
BZO,LIPB,46.4621,11.3282,Bolzano Airport,Botzen,Italy
BDS,LIBR,40.6626,17.9426,Casale Airport,Brindisi,Italy
LMP,LICD,35.4995,12.6165,Lampedusa Airport,Caltabellotta,Italy
MXP,LIMC,45.6314,8.72284,Malpensa International Airport,Cardano al Campo,Italy
SUF,LICA,38.9087,16.2443,Lamezia Terme Airport,Case Cervi,Italy
TRN,LIMF,45.1975,7.64937,Turin International Airport,Caselle,Italy
CTA,LICC,37.4696,15.0672,Catania Fontanarossa Airport,Catania,Italy
PMO,LICJ,38.1822,13.1031,Palermo Airport,Cinisi,Italy
AOI,LIPY,43.6158,13.3634,Falconara Airport,Falconara Marittima,Italy
FLR,LIRQ,43.8097,11.2003,Florence Airport,Florence,Italy
FRL,LIPK,44.1953,12.0686,Forli Airport,Forli,Italy
GOA,LIMJ,44.4119,8.84633,Genoa Cristoforo Colombo Airport,Genoa,Italy
BGY,LIME,45.6664,9.699,Orio Al Serio Airport,Grassobbio,Italy
NAP,LIRN,40.8837,14.2815,Naples International Airport,Naples,Italy
PMF,LIMP,44.8232,10.2949,Parma Airport,Parma,Italy
PSR,LIBP,42.4337,14.1846,Pescara Airport,Pescara,Italy
LIN,LIML,45.4558,9.27269,Linate Airport,Peschiera Borromeo,Italy
PSA,LIRP,43.6959,10.3976,Pisa Airport,Pisa,Italy
RMI,LIPR,44.0225,12.618,Rimini Airport,Rimini,Italy
CIA,LIRA,41.8004,12.5908,Ciampino Airport,Rome,Italy
FCO,LIRF,41.8026,12.2551,Leonardo da Vinci International Airport,Rome,Italy
TRS,LIPQ,45.8234,13.4841,Ronchi Dei Legionari Airport,Ronchi,Italy
CAG,KCAG,39.2527,9.05813,Elmas Airport,Sardara,Italy
TPS,LICT,37.9021,12.4994,Trapani Birgi Airport,Trapani,Italy
TSF,LIPH,45.6513,12.2022,Treviso Airport,Treviso,Italy
VCE,LIPZ,45.505,12.3433,Marco Polo International Airport,Venice,Italy
VBS,LIPO,45.4343,10.3214,Brescia Montichiari,Verona,Italy
ABJ,DIAP,5.2556,-3.9292,Abidjan Port Bouet Airport,Abidjan,Ivory Coast
KIN,MKJP,17.9305,-76.7898,Norman Manley,Kingston,Jamaica
MBJ,MKJS,18.5042,-77.9125,Sangster International Airport,Montego Bay,Jamaica
AXT,RJSK,39.6153,140.219,Akita Airport,Akita-shi,Japan
ASJ,RJKA,28.431,129.712,Amami Airport,Amami O Shima,Japan
AOJ,RJSA,40.7357,140.69,Aomori Airport,Aomori-shi,Japan
AKJ,RJEC,43.665,142.453,Asahikawa Airport,Asahikawa-shi,Japan
CTS,RJCC,42.7757,141.691,New Chitose Airport,Chitose-shi,Japan
FUK,RJFF,33.5971,130.443,Fukuoka Airport,Fukuoka-shi,Japan
HKD,RJCH,41.7706,140.824,Hakodate Airport,Hakodate-shi,Japan
ITM,RJOO,34.7857,135.439,Osaka International Airport,Itami-shi,Japan
KMJ,RJFT,32.8346,130.849,Kumamoto Airport,Kikuyo-machi,Japan
KOJ,RJFK,31.8,130.718,Kagoshima Airport,Kirishima-shi,Japan
OIT,RJFO,33.4801,131.737,Oita Airport,Kunisaki-shi,Japan
MYJ,KMYJ,33.8276,132.7,Matsuyama Airport,Matsuyama-shi,Japan
OKA,ROAH,24.8289,125.146,Shimojishima Airport,Naha-shi,Japan
NRT,RJAA,35.7491,140.389,Narita International Airport,Narita-shi,Japan
SDJ,RJSS,38.1401,140.918,Sendai Airport,Natori-shi,Japan
KIJ,RJSN,37.9553,139.113,Niigata Airport,Niigata-shi,Japan
OKJ,RJOB,34.7579,133.855,Okayama Airport,Okayama-shi,Japan
NGS,KNGS,32.9141,129.917,Nagasaki Airport,Omura-shi,Japan
FKS,KFKS,37.2314,140.429,Fukushima Airport,Sukagawa-shi,Japan
KIX,RJBB,34.4295,135.244,Kansai International Airport,Tajiri-cho,Japan
NGO,RJGG,34.8624,136.811,Chubu International Airport,Tokoname-shi,Japan
HND,KHND,35.5533,139.771,Tokyo International Airport,Tokyo,Japan
NKM,RJNA,35.2527,136.924,Nagoya Airport,Toyoyama-cho,Japan
ADJ,OJAM,31.973,35.9822,Al Matar Airport,Amman,Jordan
AMM,OJAI,31.7231,35.9936,Queen Alia International Airport,Amman,Jordan
AQJ,OJAQ,29.6119,35.0178,Aqaba International Airport,Aqaba,Jordan
ALA,UAAA,43.3608,77.0319,Alma Ata Airport,Almaty,Kazakhstan
AKX,UATT,50.2362,57.2115,Aktyubinsk Airport,Aqtobe,Kazakhstan
KSN,EKSN,53.2297,63.6038,Kustanay Airport,Qostanay,Kazakhstan
DZN,UAKD,47.7131,67.7065,Dzhezkazgan South Airport,Zhezqazghan,Kazakhstan
ASV,HKAM,-2.63333,37.25,Amboseli,Amboseli,Kenya
MBA,HKMO,-4.0314,39.5936,Moi International Airport,Mombasa,Kenya
NBO,HKJK,-1.31697,36.9222,Jomo Kenyatta International Airport,Nairobi,Kenya
WIL,HKNW,-1.31888,36.8157,Nairobi Wilson Airport,Nairobi,Kenya
KWI,OKBK,29.2442,47.9748,Kuwait International Airport,Kuwait City,Kuwait
FRU,UAFM,43.0603,74.4866,Vasilyevka Airport,Bishkek,Kyrgyzstan
HOE,KHOE,20.5,103.75,Houeisay,Houeisay,Lao People's Democratic Republic
ZVK,VLSK,16.5536,104.763,Savannakhet Airport,Savannakhet,Laos
VTE,VLVT,17.9833,102.565,Vientiane Airport,Vientiane,Laos
RIX,EVRA,56.9231,23.9717,Riga Airport,Marupe,Latvia
BEY,OLBA,33.825,35.4925,Beirut International Airport,Beirut,Lebanon
BEN,HLLB,35.6425,-87.1192,Benina Intl,Benghazi,Libya
AKF,HLKF,24.1819,23.3189,Kufra Airport,Kufrah,Libya
MJI,HLLM,26.3385,17.2688,Libya,Mitiga,Libya
TIP,HLLT,31,15,International,Tripoli,Libyan Arab Jamahiriya
PLQ,EYPA,55.9661,21.0825,Palanga International,Klaipeda/Palanga,Lithuania
VNO,EYVI,54.64,25.2803,Vilnius Airport,Vilnius,Lithuania
LUX,ELLX,49.6269,6.20685,Luxembourg Airport,Sandweiler,Luxembourg
MFM,VMMC,22.1845,113.532,Macau Airport,Macau,Macau
OHD,LWOH,41.1806,20.7431,Ohrid Airport,Ohrid,Macedonia
SKP,LWSK,41.9606,21.6217,Petrovec,Skopje,Macedonia
TNR,FMMI,-18.7953,47.4861,Antananarivo Ivato Airport,Ambohidratrimo,Madagascar
ANM,FMNH,-18.7772,46.8543,Madagascar,Antalaha,Madagascar
DIE,FMNA,-12.3461,49.2925,Antsiranana Arrachart Airport,Antseranana,Madagascar
SMS,KSMS,-17.0939,49.8158,Sainte Marie Airport,Toamasina,Madagascar
BLZ,FWCL,-15.6764,34.9714,Chileka International Airport,Lunzu,Malawi
PEN,WMKP,5.2975,100.278,Penang International Airport,Batu Maung,Malaysia
BTU,WBGB,3.1728,113.043,Bintulu Airport,Bintulu,Malaysia
IPH,WMKI,4.5669,101.096,Ipoh Airport,Ipoh,Malaysia
SZB,WMSA,3.1303,101.551,Sultan Abdul Aziz Shah Airport,Kampong Baru Subang,Malaysia
AOR,WMKA,6.1947,100.404,Sultan Abdul Halim Airport,Kepala Batas,Malaysia
BKI,WBKK,5.9386,116.049,Kota Kinabalu Airport,Kota Kinabalu,Malaysia
KUL,WMKK,2.77859,101.689,Kuala Lumpur International Airport,Sepang,Malaysia
HAQ,VRMH,6.75785,73.1472,Hanimadu,Hanimaadhoo,Maldives
GAN,VRMG,-0.6912,73.16,Gan Island Airport,Hithadhoo,Maldives
MLE,KMLE,4.167,73.4974,Male International Airport,Male,Maldives
BKO,GABS,12.5361,-7.9486,Bamako Senou Airport,Kalaban,Mali
MLA,LMML,35.8586,14.4781,Luqa Airport,Curmi,Malta
RNP,KRNP,11.15,166.883,Rongelap Island,Rongelap Island,Marshall Islands
FDF,TFFF,14.5897,-61.0092,Le Lamentin Airport,Ducos,Martinique
ATR,GQPA,20.5067,-13.0436,Atar Airport,Atar,Mauritania
NKC,GQNN,18.0975,-15.9478,Nouakchott Airport,Nouakchott,Mauritania
OUZ,GQPZ,22.7337,-12.4941,Mauritania,Zouerate,Mauritania
MRU,FIMP,-20.4272,57.6767,Plaisance International Airport,Mahebourg,Mauritius
DZA,FMCZ,-12.8,45.2833,Dzaoudzi Pamanzi Airport,Mamoudzou,Mayotte
ACA,MMAA,16.7561,-99.7536,General Juan N Alvarez International Airport,Acapulco,Mexico
AGU,MMAS,21.7047,-102.317,Aguascalientes Airport,Aguascalientes,Mexico
LMM,MMLM,25.6856,-109.082,Los Mochis Airport,Ahome,Mexico
MLM,MMMM,19.8464,-101.029,General Francisco J Mujica Airport,Álvaro Obregón,Mexico
LZC,MMLC,17.9889,-102.219,Lazaro Cardenas Airport,Arteaga,Mexico
CPE,MMCP,19.8158,-90.5008,Ignacio Alberto Acuna Ongay Airport,Campeche,Mexico
CUN,MMUN,21.0406,-86.8744,Cancun Airport,Cancun,Mexico
CME,MMCE,18.6522,-91.8011,Ciudad del Carmen Airport,Carmen Olorón,Mexico
PAZ,MMPA,20.6086,-97.4717,Tajin Airport,Castillo de Teayo,Mexico
CTM,MMCM,18.5039,-88.3247,Chetumal International Airport,Chetumal,Mexico
CUU,MMCU,28.7028,-105.964,General R F Villalobos International Airport,Chihuahua,Mexico
CJS,MMCS,31.6361,-106.428,Ciudad Juarez International Airport,Ciudad Juarez,Mexico
CEN,MMCN,27.3925,-109.832,Ciudad Obregon Airport,Ciudad Obregón,Mexico
LTO,MMLT,25.9858,-111.353,Loreto Airport,Comondú,Mexico
CLQ,MMIA,19.2733,-103.577,Colima Airport,Cuauhtémoc,Mexico
CUL,MMCL,24.7644,-107.474,Culiacan Airport,Culiacan,Mexico
DGO,MMDO,24.1283,-104.527,Durango Airport,Durango,Mexico
LOV,MMMV,26.9561,-101.467,Monclova Airport,Frontera,Mexico
SLW,MMIO,25.5467,-100.929,Plan de Guadalupe Airport,General Cepeda,Mexico
GYM,MMGM,27.9689,-110.924,General Jose Maria Yanez in Airport,Guaymas,Mexico
CVM,MMCV,23.7139,-98.9653,Ciudad Victoria Airport,Güémez,Mexico
HMO,MMHO,29.0967,-111.047,Gen Ignacio P Garcia International Airport,Hermosillo,Mexico
LAP,MMLP,24.0722,-110.362,General Manuel Marquez de Leon International Air,La Paz,Mexico
ZLO,MMZO,19.1478,-104.56,Playa de Oro International Airport,Manzanillo,Mexico
MAM,MMMA,25.7694,-97.5239,General Sevando Canales Airport,Matamoros,Mexico
MZT,MMMZ,23.1625,-106.274,General Rafael Buelna International Airport,Mazatlán,Mexico
MID,MMMD,20.9361,-89.6575,Lic M Crecencio Rejon International Airport,Mérida,Mexico
MXL,MMML,32.6308,-115.242,Gen Rodolfo Sanchez T International Airport,Mexicali,Mexico
MEX,MMMX,19.4344,-99.0742,Lic Benito Juarez International Airport,Mexico City,Mexico
MTT,MMMT,18.0833,-94.5961,Minatitlan Airport,Minatitlan,Mexico
NLD,MMNL,27.4422,-99.5686,Quetzalcoatl International Airport,Nuevo Laredo,Mexico
ZCL,MMZC,22.8972,-102.685,Zacatecas Airport,Pánuco,Mexico
MTY,MMMY,25.7783,-100.107,Gen Mariano Escobedo International Airport,Pesquería,Mexico
ZIH,MMZH,17.6025,-101.458,Ixtapa Zihuatanejo International Airport,Petatlán,Mexico
PDS,MMPG,28.7,-100.55,Piedras Negras International Airport,Piedras Negras,Mexico
PVR,MMPR,20.6819,-105.248,Lic Gustavo Diaz Ordaz International Airport,Puerto Vallarta,Mexico
REX,MMRX,26.0133,-98.2319,Reynosa International Airport,Reynosa,Mexico
SJD,MMSD,23.1564,-109.723,Los Cabos International Airport,S. Jose del Cabo,Mexico
SCX,KSCX,16.2104,-95.1989,Salina Cruz,Salina Cruz,Mexico
OAX,MMOX,16.9986,-96.7264,Xoxocotlan Airport,San Bernardo Mixtepec,Mexico
TGZ,MMTG,16.7683,-93.3422,Tuxtla Gutierrez Airport,San Fernando,Mexico
CZM,MMCZ,20.5242,-86.9264,Cozumel International Airport,San Miguel de Cozumel,Mexico
PXM,MMPS,15.8725,-97.0861,Puerto Escondido Airport,San Pedro Juchatengo,Mexico
BJX,MMLO,20.9903,-101.478,Silao Airport,Silao,Mexico
TAM,MMTM,22.2881,-97.8633,Gen Francisco J Mina International Airport,Tampico,Mexico
TAP,MMTP,14.7931,-92.37,Tapachula International Airport,Tapachula,Mexico
VER,KVER,19.145,-96.1878,General Heriberto Jara International Airport,Teocelo,Mexico
TPQ,MMEP,21.4758,-104.881,Tepic Airport,Tepic,Mexico
TIJ,MMTJ,32.5411,-116.972,General Abelardo L Rodriguez International Airpo,Tijuana,Mexico
GDL,MMGL,20.5347,-103.322,Don Miguel Hidalgo International Airport,Tlajomulco de Zúñiga,Mexico
PBC,MMPB,19.1433,-98.3714,Puebla Airport,Tlaltenango,Mexico
TLC,MMTO,19.3356,-99.565,Jose Maria Morelos Y Pavon Airport,Toluca de Lerdo,Mexico
TRC,MMTC,25.5683,-103.411,Torreon International Airport,Torreón,Mexico
VSA,MMVA,17.9958,-92.8189,Villahermosa Airport,Villahermosa,Mexico
KIV,LUKK,46.9296,28.9389,Kishinev Southeast Airport,Chisinau,Moldova
COQ,KCOQ,48.1366,114.65,Choybalsan Northeast Airport,Choibalsan,Mongolia
DLZ,KDLZ,43.9667,104.683,Dalanzadgad,Dalanzadgad,Mongolia
ULN,ZMUB,47.8458,106.759,Ulaanbaatar Southwest Airport,Ulan Bator,Mongolia
TGD,LYPG,42.3675,19.275,Titograd Airport,Podgorica,Montenegro
TIV,LYTV,42.4047,18.7233,Tivat Airport,Teodo,Montenegro
AGA,GMAD,30.3833,-9.55,Almassira Airport,Agadir,Morocco
AHU,GMTA,35.1781,-3.8383,Cote du Rif Airport,Al Hoceima,Morocco
CMN,GMMN,33.365,-7.5817,Mohamed V Airport,Casablanca,Morocco
RAK,GMMX,31.6167,-8.05,Menara Airport,Marrakesh,Morocco
OUD,GMFO,34.7903,-1.925,Angads Airport,Oujda,Morocco
RBA,GMME,34.0475,-6.7578,Sale Airport,Rabat,Morocco
TTA,KTTA,28.4294,-11.098,Tan-Tan,Tan Tan,Morocco
TNG,GMTT,35.7283,-5.9175,Boukhalf Airport,Tangiers,Morocco
BEW,FQBR,-19.7958,34.9089,Beira Airport,Beira,Mozambique
VXC,FQLC,-13.2761,35.2533,Lichinga Airport,Lichinga,Mozambique
APL,FQNP,-15.1,39.2814,Nampula Airport,Nampula,Mozambique
TVY,KTVY,14.1017,98.2067,,Dawe,Myanmar
RGN,VYYY,16.9064,96.1389,Mingaladon Airport,Insein,Myanmar
YST,CYST,20.9417,95.9181,Shante Airport,Meiktila,Myanmar
AKY,VYSW,20.1303,92.8803,Sittwe Airport,Sittwe,Myanmar
LUD,KLUD,-26.6839,15.245,Luderitz Airport,Luderitz,Namibia
ERS,FYWE,-22.6125,17.0819,Eros Airport,Windhoek,Namibia
WDH,FYWH,-22.4792,17.4722,Windhoek Airport,,Namibia
INU,ANYN,-0.54855,166.921,Nauru International Airport,Yaren,Nauru
BWA,VNBW,27.5042,83.42,Bhairawa Airport,Bhairawa,Nepal
MEY,KMEY,40.1494,-91.5043,,Meghauli,Nepal
GRQ,EHGG,53.1273,6.58249,Groningen Eelde,Eelde,Netherlands
EIN,EHEH,51.4463,5.39212,Eindhoven Airport,Eindhoven,Netherlands
ENS,EHTW,52.2678,6.89152,Enschede Twente,Enschede,Netherlands
MST,EHBK,50.9157,5.76967,Maastricht Airport,Maastricht-Airport,Netherlands
RTM,EHRD,51.9525,4.4392,Rotterdam Airport,Rotterdam,Netherlands
AMS,EHAM,52.3122,4.77511,Schiphol Airport,Schiphol Zuid,Netherlands
CUR,TNCC,12.188,-68.9634,Hato Airport,Curacao,Netherlands Antilles
BON,TNCB,12.1392,-68.2697,Flamingo Airport,Kralendijk,Netherlands Antilles
SXM,TNCM,18.0421,-63.1107,Prinses Juliana International Airport,,Netherlands Antilles
NOU,NWWW,-22.0258,166.21,La Tontouta Airport,,New Caledonia
BHE,NZWB,-41.52,173.87,Woodbourne Airport,Blenheim,New Zealand
CHT,KCHT,-37.9723,174.566,Karewa,Chatham Island,New Zealand
CHC,NZCH,-43.4859,172.534,Christchurch International Airport,Christchurch,New Zealand
GIS,NZGS,-38.66,177.978,Gisborne Airport,Gisborne,New Zealand
HLZ,NZHN,-37.8632,175.328,Hamilton Airport,Hamilton,New Zealand
HKK,NZHK,-42.7141,170.989,Hokitika Airport,Hokitika,New Zealand
IVC,NZNV,-46.4124,168.309,Invercargill Airport,Invercargill,New Zealand
KAT,NZKT,-35.0714,173.277,Kaitaia Aerodrome,Kaitaia,New Zealand
KKE,NZKK,-35.2584,173.908,Bay of Islands Airport,Kerikeri,New Zealand
AKL,NZAA,-37.0085,174.782,Auckland International Airport,Manukau City,New Zealand
NPE,NZNR,-39.4689,176.867,Hawkes Bay Airport,Napier,New Zealand
NSN,NZNS,-41.2961,173.22,Nelson Airport,Nelson,New Zealand
NPL,NZNP,-39.0067,174.171,New Plymouth Airport,New Plymouth,New Zealand
OAM,NZOU,-44.9679,171.086,Oamaru Airport,Oamaru,New Zealand
DUD,NZDN,-45.9287,170.199,Dunedin Airport,Outram,New Zealand
PMR,NZPM,-40.3227,175.611,Palmerston North Airport,Palmerston North,New Zealand
ZQN,NZQN,-45.0217,168.737,Frankton Airport,Queenstown,New Zealand
ROT,NZRO,-38.1047,176.314,Rotorua Airport,Rotorua,New Zealand
TUO,NZAP,-38.7383,176.088,Taupo Aerodrome,Taupo,New Zealand
TRG,NZTG,-37.6738,176.19,Tauranga Airport,Tauranga,New Zealand
TIU,NZTU,-44.3015,171.223,Richard Pearse Airport,Timaru,New Zealand
WKA,NZWF,-44.725,169.243,Wanaka Airport,Wanaka,New Zealand
WAG,NZWU,-39.9635,175.029,Wanganui Airport,Wanganui,New Zealand
WLG,NZWN,-41.3295,174.806,Wellington International Airport,Wellington,New Zealand
WSZ,NZWS,-41.7383,171.58,Westport Airport,Westport,New Zealand
WHK,NZWK,-37.9213,176.919,Whakatane Airport,Whakatane,New Zealand
WRE,NZWR,-35.7705,174.36,Whangarei Airport,Whangarei,New Zealand
MGA,MNMG,12.1411,-86.1686,Augusto Cesar Sandino International Airport,Tipitapa,Nicaragua
NIM,DRRN,13.4817,2.1703,Niamey Airport,Niamey,Niger
ABV,DNAA,9.0056,7.2661,Abuja International Airport,Gwagwa,Nigeria
LOS,DNMM,6.575,3.3222,Lagos Murtala Muhammed Airport,Ikeja,Nigeria
QOW,DNIM,5.49341,7.0261,Owerri,Owerri,Nigeria
PHG,KPHG,4.85,7.01667,Port Harcourt City,Port Harcourt,Nigeria
PHC,DNPO,5.0125,6.9625,Port Harcourt International Airport,Port Harcourt,Nigeria
IUE,NIUE,-19.0787,-169.926,Niue,Niue Island,Niue
NLK,YNSF,-29.0363,168.032,Norfolk Island Airport,Kingston,Norfolk Island
FNJ,ZKPY,39.1437,125.695,Sunan Airport,Sunan,North Korea
ALF,ENAT,69.9793,23.3571,Alta Airport,Alta,Norway
ANX,ENAN,69.3088,16.1236,Andoya Airport,Andenes,Norway
HAU,ENHD,59.3436,5.21246,Haugesund Karmoy Airport,Avaldsnes,Norway
BJF,ENBS,70.6031,29.6948,Batsfjord Airport,Baasfjord,Norway
BDU,ENDU,69.0589,18.539,Bardufoss Airport,Bardufoss,Norway
BGO,ENBR,60.2907,5.22065,Bergen Flesland Airport,Blomsterdalen,Norway
BOO,ENBO,67.2709,14.3653,Bodo Airport,Bodo,Norway
MOL,ENML,62.7466,7.26397,Aro Airport,Bolsøya,Norway
BNN,ENBN,65.462,12.2161,Bronnoy Airport,Bronnoysund,Norway
FDE,ENBL,61.392,5.7615,Bringeland Airport,Bygstad,Norway
FRO,ENFL,61.5863,5.02484,Flora Airport,Floro,Norway
OSL,ENGM,60.1947,11.1005,Oslo Gardermoen Airport,Gardermoen,Norway
HFT,ENHF,70.6808,23.676,Hammerfest Airport,Hammerfest,Norway
KKN,ENKR,69.726,29.8958,Kirkenes Hoybuktmoen Airport,Hesseng,Norway
HVG,ENHV,71.0099,25.9767,Valan Airport,Honningsvåg,Norway
HOV,ENOV,62.1804,6.07624,Hovden Airport,Hovdebygda,Norway
KRS,ENCN,58.1988,8.07792,Kristiansand Airport,Kjevic,Norway
KSU,ENKB,63.1137,7.82585,Kristiansund Kvernberget Airport,Kristiansund Nord,Norway
LKL,ENNA,70.0661,24.975,Banak Airport,Lakeselv,Norway
LYR,ENSB,78.1917,15.9,Svalbard Longyear Airport,Longyearbyen,Norway
NVK,ENNK,68.4431,17.3941,Framnes Airport,Narvik,Norway
SVG,ENZV,58.8806,5.63019,Stavanger Sola Airport,Rage,Norway
RRS,ENRO,62.5792,11.3458,Roeros Airport,Roros,Norway
RYG,ENRY,59.3789,10.7856,Moss Airport,Rygge,Norway
TRF,ENTO,59.182,10.2509,Torp Airport,Sandefjord,Norway
SDN,ENSD,61.8296,6.10628,Sandane Airport,Sandene,Norway
SKE,ENSN,59.1844,9.56938,Geiterygen Airport,Skien,Norway
SRP,ENSA,59.7928,5.33972,Sorstukken Airport,Skjold,Norway
TRD,ENVA,63.4578,10.9229,Trondheim Vaernes Airport,Stjordal,Norway
SKN,ENSK,68.5802,15.0325,Stokmarknes Airport,Stokkmarknes,Norway
EVE,ENEV,68.489,16.6806,Evenes Airport,Tarnstad,Norway
TOS,ENTC,69.6787,18.9096,Tromso Langnes Airport,Tromso,Norway
VDS,ENVD,70.0653,29.8416,Vadso Airport,Vadso,Norway
AES,ENAL,62.5607,6.11129,Vigra Airport,Vigra,Norway
MCT,OOMS,23.5917,58.2792,Seeb International Airport,Muscat,Oman
BHV,OPBW,29.3444,71.7125,Bahawalpur Airport,Bahawalpur,Pakistan
KHI,OPKC,24.8984,67.1518,Karachi Civil Airport,Karachi,Pakistan
LHE,OPLA,31.521,74.3933,Lahore Airport,Lahore,Pakistan
MJD,KMJD,27.3364,68.1417,Moenjodaro Airport,Mohenjodaro,Pakistan
PJG,OPPG,26.9547,64.1331,Panjgur Airport,Panjgur,Pakistan
PEW,OPPS,33.9933,71.515,Peshawar Airport,Peshawar,Pakistan
ISB,KISB,33.6147,73.0967,Islamabad International Airport,Råwalpindi,Pakistan
ROR,PTRO,7.35743,134.547,Koror Airport,Koror,Palau
PTY,MPTO,9.07,-79.3836,Tocumen International Airport,Tocumen,Panama
BUA,AYBK,-5.42232,154.673,Buka,Buka,Papua New Guinea
PNP,PAPN,-8.8056,148.309,Girua Airport,Popondetta,Papua New Guinea
POM,AYPY,-9.4425,147.219,Port Moresby International Airport,Port Moresby,Papua New Guinea
ASU,SGAS,-25.2397,-57.5189,Silvio Pettirossi International Airport,Colonia Mariano Roque Alonso,Paraguay
AGT,SGES,-25.5266,-54.6226,Alejo Garcia Airport,Presidente Franco,Paraguay
AQP,SPQU,-16.3372,-71.5692,Rodriguez Ballon Airport,Arequipa,Peru
PCL,SPCL,-8.3753,-74.5731,Pucallpa Airport,Callaria,Peru
CIX,SPHI,-6.7897,-79.8322,Cap J A Quinones Gonzales Airport,Chiclayo,Peru
TRU,SPRU,-8.09,-79.115,Cap C Martinez de Pinillos Airport,Huanchaco,Peru
IQT,SPQT,-3.7856,-73.3103,Cnl Fap Fran Seca Vignetta Airport,Iquitos,Peru
JUL,SPJL,-15.4642,-70.1544,Juliaca Airport,Juliaca,Peru
PIU,SPUR,-5.2022,-80.6142,Capitan Concha Airport,Piura,Peru
PEM,SPTU,-12.6128,-69.2297,Padre Aldamiz Airport,Puerto Maldonado,Peru
CUZ,SPZO,-13.5308,-71.9472,Velazco Astete Airport,San Sebastián,Peru
LIM,SPIM,-12.0228,-77.1081,Jorge Chavez Airport,Ventanilla,Peru
BCD,RPVB,10.6444,122.929,Bacolod Airport,Bacolod City,Philippines
BAG,RPUB,16.3764,120.619,Baguio Airport,Baguio City,Philippines
BXU,RPME,8.9528,125.476,Butuan Airport,Buenavista,Philippines
CEB,RPVM,10.3596,123.837,Lahug Airport,Cebu,Philippines
DVO,KDVO,7.1292,125.647,Francisco Bangoy International Airport,Davao City,Philippines
CRK,RPLC,15.1806,120.557,Clark Field Airport,Mabalacat,Philippines
MBT,KMBT,12.3703,123.628,Masbate Airport,Masbate,Philippines
MNL,RPLL,14.5114,121.016,Ninoy Aquino International Airport,Parañaque,Philippines
DPL,RPMG,8.6043,123.348,Dipolog Airport,Polanco,Philippines
PPS,RPVP,9.7433,118.756,Puerto Princesa International Airport,Puerto Princesa,Philippines
DGT,RPVD,9.3358,123.301,Dumaguete Airport,Sibulan,Philippines
IEG,EPZG,52.1282,15.7975,Babimost Airport,Babimost,Poland
BZG,EPBD,53.0918,17.9821,Szwederowo Airport,Białe Błota,Poland
GDN,EPGD,54.3821,18.454,Rebiechowo Airport,Gdansk,Poland
LCJ,EPLL,51.7217,19.3989,Lodz Lublinek,Lodz,Poland
KTW,EPKT,50.4819,19.0772,Zendek Airport,Ożarowice,Poland
POZ,EPPO,52.4284,16.8208,Lawica Airport,Poznan,Poland
RZE,EPRZ,50.1062,22.0243,Jasionka Airport,Trzebownisko,Poland
WAW,EPWA,52.17,20.9725,Okecie International Airport,Warsaw,Poland
WRO,EPWR,51.1039,16.8985,Strachowice Airport,Wroclaw,Poland
KRK,EPKK,50.0741,19.8011,Balice Airport,Zabierzów,Poland
FAO,LPFR,37.0154,-7.97197,Faro Airport,Faro,Portugal
LIS,LPPT,38.7701,-9.13775,Lisbon Airport,Lisbon,Portugal
FNC,LPMA,32.6919,-16.7768,Funchal Airport,Madeira,Portugal
OPO,LPPR,41.2372,-8.67341,Porto Airport,Maia,Portugal
PDL,LPPD,37.7375,-25.6983,Ponta Delgada Airport,Ponta Delgada,Portugal
PXO,LPPS,33.0667,-16.35,Porto Santo Airport,Porto Santo,Portugal
TER,LPLA,38.765,-27.0958,Lajes Airport,Praia da Vitória,Portugal
SMA,LPAZ,36.9658,-25.1714,Santa Maria Airport,Vila do Porto,Portugal
DOH,OTBD,25.2592,51.5658,Doha International Airport,Doha,Qatar
RUN,FMEE,-20.8772,55.5214,Saint Denis Gillot Airport,Sainte-Marie,Reunion
ZSE,FMEP,-20.8833,55.5333,Réunion,St Pierre dela Reunion,Reunion
ARW,LRAR,46.1805,21.2609,Ceala Airport,Arad,Romania
BCM,LRBC,46.5283,26.8997,Luizi Calugara Airport,Bacæu,Romania
BAY,LRBM,47.6589,23.465,Baia Mare,Baia Mare,Romania
BBU,LRBS,44.4966,26.087,Aeroportul National Bucuresti-Baneasa,Bucharest,Romania
OTP,LROP,44.5656,26.1029,Otopeni Airport,Bucharest,Romania
CLJ,LRCL,46.7902,23.6984,Someseni Airport,Clausemburgo,Romania
CRA,LRCV,44.3173,23.8447,Craiova Airport,Croiova,Romania
IAS,LRIA,47.1814,27.617,Iasi North Airport,Ilasi,Romania
CND,LRCK,44.3581,28.4896,Constanta Mihail Kogalniceanu Airport,Kustenje,Romania
OMR,LROD,47.0249,21.9292,Oradea Airport,Oradea-Mare,Romania
SUJ,LRSM,47.7134,22.8887,Satu Mare Airport,Satu Mare,Romania
SBZ,LRSB,45.7882,24.0943,Turnisor Airport,Sibiu,Romania
SCV,LRSV,47.6943,26.363,Suceava Salcea Airport,,Romania
TSR,LRTR,45.8047,21.3377,Timisoara Northeast Airport,,Romania
TGM,LRTM,46.4676,24.4203,Vidrasau Airport,,Romania
MMK,KMMK,68.7794,32.7434,Murmashi Airport,Apatity,Russia
ARH,ULAA,64.4465,40.4242,Arkhangelsk Airport,Arkhangel'sk,Russia
ASF,URWA,46.2971,48.0515,Astrakhan Southeast Airport,Astrakhan',Russia
BAX,KBAX,53.3667,83.75,Barnaui West Airport,Barnaul,Russia
CSY,UWKS,56.1311,47.2882,Russia,Cheboksary,Russia
PKC,UHPP,53.1663,158.447,Petropavlovsk Yelizovo Airport,Elizovo,Russia
IKT,UUII,52.2604,104.404,Irkutsk Southeast Airport,Irkutsk,Russia
KJA,UNKL,56.1688,92.4987,Yelovaya Airport,Kansk,Russia
MCX,KMCX,42.8209,47.6288,Makhachkala-Uytash Airport,Khasavyurt,Russia
UUS,UHSS,46.8885,142.724,Yuzhno Sakhalinsk South Airport,Kholmsk,Russia
MRV,URMM,44.2026,43.1352,Mineral'nyye Vody,Mineralnye Vody,Russia
NBC,KNBC,59.4615,108.832,Russia,Naberevnye Chelny,Russia
VVO,UHWW,43.3972,132.156,Artem North Airport,Nakhodka,Russia
AMV,ULDD,69.7638,61.5586,Amderma Airport,Nar'yan-Mar,Russia
AAQ,URKA,44.9,37.3167,Olkhovka Airport,Novorossiysk,Russia
OVB,UNNT,55.0078,82.6508,Tolmachevo Airport,Novosibirsk,Russia
UFA,UWUU,54.5569,55.8893,Ufa South Airport,Oufa,Russia
DME,UUDD,55.4025,37.9136,Domodedovo Airport,Podol'sk,Russia
VKO,UUWW,55.5978,37.285,Ynukovo Airport,Podol'sk,Russia
AER,URSS,43.447,39.9552,Adler Airport,Sochi,Russia
LED,ULLI,59.9667,30.3,Pulkuvo 2 Airport,St. Petersburg,Russia
PEX,KPEX,65.1179,57.1095,Pechora Southwest Airport,Ukhta,Russia
SVX,USSS,56.7435,60.7911,Koltsovo Airport,Yekaterinburg,Russia
SVO,UUEE,55.9621,37.4189,Sheremtyevo Airport,Zelenograd,Russia
CEK,KCEK,55.3104,61.4913,Chelyabinsk Balandino Airport,Zlatoust,Russia
ABA,UNAA,53.7167,91.4333,Abakan,Abakan,Russian Federation
PEZ,KPEZ,53.2167,45,Penza,Penza,Russian Federation
KGL,HRYR,-1.9678,30.14,Kigali Airport,Kigali,Rwanda
SKB,TKPK,17.3128,-62.7178,Golden Rock Airport,Basseterre,Saint Kitts and Nevis
NEV,TKPN,17.2,-62.6,Newcastle Airport,Nevis,Saint Kitts and Nevis
FSP,LFVP,46.7708,-56.1667,St Pierre Airport,St Pierre,Saint Pierre and Miquelon
SVD,TVSV,13.1422,-61.2111,E T Joshua Airport,Kingstown,Saint Vincent and the Grenadines
APW,NSFA,-13.8255,-171.993,Faleolo Airport,Apia,Samoa
ABT,OEBA,20.2961,41.6342,Al Baha Airport,Al Aqiq,Saudi Arabia
AHB,OEAB,18.24,42.6556,Abha Airport,Hajlah,Saudi Arabia
JED,OEJN,21.706,39.1386,King Abdul Aziz International Airport,Jeddah,Saudi Arabia
DMM,OEDF,26.4722,49.8058,King Fahd International Airport,Khuwaylidiyah,Saudi Arabia
RUH,OERK,24.9625,46.7078,King Khalid International Airport,Riyadh,Saudi Arabia
XXN,OERY,46.4931,-90.4134,Riyadh Air Base,Riyadh,Saudi Arabia
AJF,OESK,29.7897,40.1039,Al Jouf Airport,Sakakah,Saudi Arabia
TUU,KTUU,28.3722,36.6253,Tabuk Airport,Tabuk,Saudi Arabia
YNB,OEYN,24.145,38.0636,Yenbo Airport,Yanbu al Bahr,Saudi Arabia
TIF,KTIF,21.4831,40.5439,Taif Airport,,Saudi Arabia
DKR,GOOY,14.7417,-17.4931,Dakar Yoff Airport,Ngor,Senegal
XLS,GOSS,16.0503,-16.4603,Saint Louis Airport,,Senegal
PRN,KPRN,42.5753,21.0364,Pristina Airport,Prishtina,Serbia
BEG,LYBE,44.8192,20.3122,Surcin Airport,Surčin,Serbia
SEZ,FSIA,-4.6751,55.5177,Seychelles International Airport,Victoria,Seychelles
FNA,GFLL,8.6181,-13.1994,Freetown Lungi Airport,Freetown,Sierra Leone
XSP,WSSL,1.4167,103.869,Seletar Airport,Singapore,Singapore
SIN,WSSS,1.3578,103.991,Singapore Changi Airport,Singapore,Singapore
BTS,LZIB,48.2063,17.2055,Bratislava Airport,Bratislava,Slovakia
KSC,LZKZ,48.6548,21.2487,Barca Airport,Kosice,Slovakia
TAT,LZTT,49.0663,20.2445,Poprad Tatry Airport,Poprad,Slovakia
LJU,LJLJ,46.2247,14.4608,Ljubljana Airport,Ljubljana,Slovenia
BSA,HCMF,11.2775,49.1814,Somalia,Bossaso,Somalia
BUO,HCMV,65.8514,12.344,Burao,Burao,Somalia
BFN,FABL,-29.0942,26.3027,J B M Hertzog Airport,Bloemfontein,South Africa
CPT,FACT,-33.9647,18.6022,D F Malan Airport,Cape Town,South Africa
DUR,FADN,-29.9736,30.9472,Louis Botha Airport,Durban,South Africa
ELS,FAEL,-33.0361,27.8239,Ben Schoeman Airport,East London,South Africa
GRJ,FAGG,-34.005,22.3792,P W Botha Airport,George,South Africa
JNB,FAJS,-26.1219,28.2467,OR Tambo International Airport,Johannesburg,South Africa
KIM,FAKM,-28.8014,24.7639,B J Vorster Airport,Kimberley,South Africa
AKS,FAKS,-27.6667,27.3167,Kroonstad Airport,Kroonstad,South Africa
AAM,FAMD,-24.8,31.5333,Mala Mala,Mala Mala,South Africa
PLZ,FAPE,-33.9861,25.6139,H F Verwoerd Airport,Port Elizabeth,South Africa
UTN,FAUP,-28.3986,21.2528,Pierre Van Ryneveld Airport,Upington,South Africa
PUS,RKPP,35.1777,128.937,Kimhae International Airport,Busan,South Korea
ICN,RKSI,37.4534,126.657,New Incheon International Airport,Incheon,South Korea
CJU,RKPC,33.5056,126.495,Cheju International Airport,Jeju-Si,South Korea
CJJ,KCJJ,36.7131,127.509,Cheongju International Airport,Naesu-Eup,South Korea
GMP,RKSS,37.5563,126.793,Gimpo International Airport,Seoul,South Korea
ABC,LEAB,38.9833,-1.85,Los Llanos,Albacete,Spain
LEI,LEAM,36.8459,-2.37221,Almeria Airport,Almeria,Spain
FUE,GCFV,28.3997,-13.9998,Puerto del Rosario Airport,Antigua,Spain
BJZ,LEBZ,38.8939,-6.81921,Talavera la Real Airport,Badajoz,Spain
SPC,GCLA,28.6676,-17.7708,Santa Cruz de la Palma Airport,Breña Alta,Spain
OVD,LEAS,43.5596,-6.03102,Asturias Airport,Castrillón,Spain
BCN,LEBL,41.3006,2.07976,Barcelona International Airport,El Prat de Llobregat,Spain
ALC,LEAL,38.2844,-0.5576,Alicante Airport,Elx,Spain
TFS,GCTS,28.0474,-16.5705,Sur-Reina Sofia Airport,Granadilla,Spain
XRY,LEJR,36.7497,-6.06054,Jerez Airport,Jerez,Spain
BIO,LEBB,43.3025,-2.91112,Bilbao Airport,Loiu,Spain
MAD,LEMD,40.4684,-3.56769,Barajas Airport,Madrid,Spain
AGP,LEMG,36.6749,-4.49298,Malaga Airport,Malaga,Spain
VLC,LEVC,39.4929,-0.47617,Valencia Airport,Manises,Spain
PNA,KPNA,42.7672,-1.64017,Pamplona Airport,Noáin,Spain
PMI,LEPA,39.5495,2.73188,Palma de Mallorca Airport,Palma,Spain
REU,LERS,41.1444,1.15631,Reus Airport,Reus,Spain
LCG,LECO,43.3026,-8.37867,La Coruna Airport,S Esteban,Spain
ACE,GCRR,28.9521,-13.6085,Arrecife Airport,San Bartolomé,Spain
MJV,LELC,37.7697,-0.82098,Murcia San Javier Airport,San Javier,Spain
IBZ,LEIB,38.8755,1.36851,Ibiza Airport,San José,Spain
SCQ,LEST,42.8991,-8.41646,Santiago Airport,Santiago,Spain
SVQ,LEZL,37.4224,-5.89796,Sevilla Airport,Seville,Spain
TFN,GCXO,28.4978,-16.3419,Norte-Los Rodeos Airport,Tegueste,Spain
VLL,KVLL,41.7077,-4.84504,Valladolid Airport,Valladolid,Spain
VGO,LEVX,42.2258,-8.63269,Vigo Airport,Vigo,Spain
GRO,LEGE,41.8992,2.7646,Gerona Airport,Vilobí d'Onyar,Spain
ZAZ,LEZG,41.6607,-1.0078,Zaragoza Air Base,Zaragoza,Spain
CMB,VCBI,7.1806,79.8856,Katunayake International Airport,Gampaha,Sri Lanka
ASI,FHAW,-7.93586,-14.4081,Wideawake Fld,"Georgetown, Ascension Island",St. Helena
SLU,TLPC,14.0192,-60.9928,Vigie Airport,St Lucia,St. Lucia
UVF,TLPL,13.7336,-60.9542,Hewanorra International Airport,Vieux Fort,St. Lucia
ATB,HSAT,17.7,33.9833,Atbara,Atbara,Sudan
DOG,HSDN,19.1833,30.4833,Dongola Airport,Dongola,Sudan
PBM,SMJP,5.45,-55.1867,Zandery Airport,Sabakoe,Suriname
AGH,ESTA,56.2873,12.8675,Angelholm Airport,Angelholm,Sweden
AJR,ESNX,65.592,19.2647,Arvidsjaur Airport,Arvidsjaur,Sweden
SDL,KSDL,62.5249,17.4407,Sundsvall Harnosand Airport,Bergeforsen,Sweden
BMA,ESSB,59.3562,17.9378,Bromma Airport,Bromma,Sweden
HAD,KHAD,56.6819,12.8164,Halmstad Airport,Hamstad,Sweden
GOT,ESGG,57.6693,12.2957,Gothenburg Airport,Härryda,Sweden
OER,ESNO,63.4113,18.9916,Ornskoldsvik Airport,Husum,Sweden
GEV,KGEV,67.1345,20.8126,Lappland Airport,Koskullskulle,Sweden
GSE,ESGP,57.7774,11.8648,Save Airport,Kyrkobyn,Sweden
LPI,ESSL,58.4082,15.6586,Saab Airport,Linkoping,Sweden
LLA,ESPA,65.549,22.1233,Kallax Airport,Lulea,Sweden
ARN,ESSA,59.6521,17.9317,Arlanda Airport,Märst,Sweden
NYO,ESKN,58.7833,16.9224,Skavsta Airport,Nykoping,Sweden
ORB,KORB,59.2279,15.0455,Orebro Airport,Orebro,Sweden
MMX,ESMS,55.5406,13.3666,Sturup Airport,Svedala,Sweden
UME,ESNU,63.7932,20.2848,Umea Airport,Umea,Sweden
VXO,ESMX,56.9242,14.7318,Kronoberg Airport,Vaxjo,Sweden
LUG,KLUG,46.0013,8.90909,Lugano Airport,Agno,Switzerland
ACH,LSZR,47.4887,9.55376,Altenrhein Airport,Altenrhein,Switzerland
BRN,LSZB,46.9124,7.49929,Bern Belp Airport,Belp,Switzerland
GVA,LSGG,46.2329,6.10682,Geneva Airport,Geneva,Switzerland
ZRH,LSZH,47.454,8.56137,Zurich International Airport,Kloten,Switzerland
KAC,OSKL,37.0333,41.0833,Kamishly Airport,Al Qamishli,Syria
DAM,OSDI,33.4139,36.5178,Damascus International Airport,Damascus,Syria
DEZ,OSDZ,35.2822,40.1744,Deir Zzor Airport,Dayr az Zawr,Syria
ALP,OSAP,36.1808,37.2267,Aleppo International Airport,Djibrine,Syria
HUN,RCYU,24.0257,121.613,Hwmlien Airport,Hualien City,Taiwan
KHH,RCKH,22.5698,120.345,Kaohsiung International Airport,Kaohsiung City,Taiwan
TNN,RCNN,22.9634,120.216,Tainan Airport,Tainan City,Taiwan
TSA,RCSS,25.0637,121.552,Taipei Songshan Airport,Taipei City,Taiwan
TPE,RCTP,25.081,121.237,Taiwan Taoyuan International Airport,Taoyuan City,Taiwan
DYU,UTDD,38.5785,68.7773,Tajikistan,Dushanbe,Tajikistan
ARK,HTAR,-3.36515,36.6738,Arusha Airport,Arusha,Tanzania
DAR,HTDA,-6.8753,39.2019,Dar Es Salaam Airport,Dar es Salaam,Tanzania
JRO,HTKJ,-3.4278,37.0714,Kilimanjaro International Airport,Sanya,Tanzania
ZNZ,HTZA,-6.2203,39.2228,Zanzibar Airport,Stone Town,Tanzania
CNX,VTCC,18.7714,98.9628,Chiang Mai International Airport,Chiang Mai,Thailand
CEI,VTCT,19.8864,99.8306,Chiang Rai Airport,Chiang Rai,Thailand
DMK,VTBD,13.9181,100.59,Don Mueang,Don Muang,Thailand
HDY,VTSS,6.9294,100.399,Hat Yai International Airport,Hat Yai,Thailand
BKK,VTBS,13.9144,100.608,Bangkok International Airport,Lak Si,Thailand
URT,VTSB,9.1367,99.1417,Surat Thani Airport,Phun Phin,Thailand
HKT,VTSP,8.1106,98.3125,Phuket International Airport,Thalang,Thailand
LFW,DXXX,6.1625,1.255,Lome Tokoin Airport,Lome,Togo
TBU,NFTF,-21.2486,-175.136,Fua'amotu International Airport,Nuku'alofa,Tonga
TAB,TTCP,11.25,-60.6667,Crown Point Airport,Plymouth,Trinidad and Tobago
POS,TTPP,10.5936,-61.3386,Piarco Airport,Trinidad,Trinidad and Tobago
GAF,KGAF,34.4222,8.81944,Gafsa,Gafsa,Tunisia
DJE,DTTJ,33.8764,10.7792,Zarzis Airport,Hawmat as Suq,Tunisia
TUN,DTTA,36.8435,10.2348,Aeroport Tunis,Tunis,Tunisia
ADA,LTAF,36.9811,35.2803,Sakirpasa Airport,Adana,Turkey
ADF,LTAG,37.8099,38.3357,Adiyaman Airport,Adiyaman,Turkey
AJI,LTCO,39.7239,43.0618,Agri Airport,Agrı,Turkey
AYT,LTAI,36.9022,30.7917,Antalya Airport,Antalya,Turkey
ADB,LTBJ,38.32,27.1603,Gaziemir Airport,Azmir,Turkey
IST,LTBA,40.9857,28.8163,Ataturk Hava Limani Airport,Bakırköy,Turkey
BAL,LTCJ,37.93,41.1167,Batman Airport,Batman,Turkey
ESB,LTAC,40.1289,32.9961,Esenboga Airport,Çubuk,Turkey
DIY,LTCC,37.8947,40.2019,Diyarbakir Airport,Diyaribakir,Turkey
ASR,LTAU,38.7708,35.4939,Erkilet Airport,Kayseri,Turkey
MZH,KMZH,40.8303,35.5202,Merzifon,Merzifon,Turkey
DLM,LTBS,36.7125,28.7922,Dalaman Airport,Ortaca,Turkey
TZX,LTCD,41,39.7167,Trabzon Air Base,Trabzon,Turkey
SAW,LTFJ,40.9928,29.034,Istanbul Sabiha Gokcen Airport,Umraniye,Turkey
ASB,UTAA,37.9842,58.3294,Ashkhabad Northwest Airport,Ashgabat,Turkmenistan
NCA,KNCA,21.9167,-71.9425,North Caicos Airport,Bottle Creek Settlements,Turks And Caicos Islands
MDS,KMDS,21.7905,-71.7664,Middle Caicos Airport,Lorimers,Turks And Caicos Islands
PLS,MBPV,21.7728,-72.2683,Providenciales Airport,The Bight Settlements,Turks And Caicos Islands
FUN,NGFU,-8.52982,179.189,Funafuti International Airport,Funafuti,Tuvalu
EBB,HUEN,0.0417,32.4381,Entebbe International Airport,Entebbe,Uganda
DNK,UKDD,48.368,35.0942,Voloskoye Airport,Dnipropetrovs'k,Ukraine
DOK,UKCC,48.072,37.7426,Donetsk Airport,Donets'k,Ukraine
HRK,UKHH,49.9245,36.2946,Kharkov Airport,Kharkiv,Ukraine
KBP,UKBB,50.3405,30.9025,Borispol Airport,Kiev,Ukraine
IEV,UKKK,50.4069,30.4456,Zhulyany Airport,Kiev,Ukraine
LWO,UKLL,49.7977,23.9695,Sknilov Airport,L'viv,Ukraine
VSG,UKCW,48.5667,39.3333,Lugansk Airport,Luhans'k,Ukraine
ODS,UKOO,46.4402,30.6764,Odessa Central Airport,Odesa,Ukraine
AUH,OMAA,24.4331,54.6489,Abu Dhabi International Airport,Abu Dhabi,United Arab Emirates
FJR,OMFJ,25.1106,56.3267,Fujairah Airport,Al Fujayrah,United Arab Emirates
AAN,OMAL,24.25,55.75,Al Ain Airport,Ayn al Faydah,United Arab Emirates
DXB,OMDB,25.2509,55.3629,Dubai International Airport,Dubai,United Arab Emirates
RKT,OMRK,25.6111,55.9378,Ras Al Khaimah International Airport,,United Arab Emirates
ABZ,EGPD,57.2004,-2.20373,Aberdeen Dyce International Airport,Aberdeen,United Kingdom
BRR,EGPR,57.0251,-7.44967,North Bay Airport,Barra,United Kingdom
BWF,EGNL,54.1284,-3.26249,Walney Island Airport,Barrow in Furness,United Kingdom
CWL,EGFF,51.3998,-3.34475,Cardiff International Airport,Barry,United Kingdom
BHD,EGAC,54.6151,-5.87096,George Best Belfast City Airport,Belfast,United Kingdom
BHX,EGBB,52.4531,-1.73847,Birmingham International Airport,Birmingham,United Kingdom
BLK,EGNH,53.7756,-3.04118,Blackpool Airport,Blackpool,United Kingdom
BRS,EGGD,51.3848,-2.70526,Bristol International Airport,Bristol,United Kingdom
CBG,EGSC,52.2069,0.17355,Cambridge Airport,Cambridge,United Kingdom
BZZ,EGVN,51.7614,-1.57482,Brize Norton Airport,Carterton,United Kingdom
IOM,EGNS,54.0819,-4.6269,Ronaldsway Airport,Castletown,United Kingdom
GLO,EGBJ,51.8925,-2.1633,Gloucestershire Airport,Cheltenham,United Kingdom
BOH,EGHH,50.7797,-1.83424,Bournemouth International Airport,Christchurch,United Kingdom
CVT,EGBE,52.367,-1.4895,Coventry Airport,Coventry,United Kingdom
BFS,EGAA,54.6542,-6.225,Aldergrove Airport,Crumlin,United Kingdom
MME,EGNV,54.5116,-1.43475,Durham Tees Valley Airport,Darlington,United Kingdom
EMA,EGNX,52.8258,-1.33094,East Midlands International Airport,Derby,United Kingdom
DSA,EGCN,53.3954,-1.38243,Sheffield Airport,Doncaster Sheffield,United Kingdom
DND,EGPN,56.4538,-3.01347,Dundee Airport,Dundee,United Kingdom
EDI,EGPH,55.9486,-3.36431,Edinburgh International Airport,Edinburgh,United Kingdom
EXT,EGTE,50.7303,-3.4166,Exeter Airport,Exeter,United Kingdom
HRT,KHRT,54.0486,-1.25333,Linton-On-Ouse,Harrogate,United Kingdom
LHR,EGLL,51.4703,-0.45342,London Heathrow Airport,Hounslow,United Kingdom
IPW,EGSE,52.0285,1.19325,Ipswich Airport,Ipswich,United Kingdom
SYY,EGPO,58.2119,-6.32319,Stornoway Airport,Isle of lewis,United Kingdom
TSO,KTSO,49.9502,-6.32874,,Isles Of Scilly,United Kingdom
LBA,EGNM,53.8685,-1.66123,Leeds Bradford Airport,Leeds,United Kingdom
LPL,EGGP,53.3371,-2.85746,Liverpool John Lennon Airport,Liverpool,United Kingdom
LCY,EGLC,51.5039,0.04981,London City Airport,London,United Kingdom
LDY,EGAE,55.0402,-7.156,City of Derry Airport,Londonderry,United Kingdom
LTN,EGGW,51.8796,-0.37548,London Luton Airport,Luton,United Kingdom
MAN,EGCC,53.365,-2.27089,Manchester International Airport,Manchester,United Kingdom
MSE,GMSH,51.3448,1.35733,Kent International Airport,Manston,United Kingdom
NCL,EGNT,55.0374,-1.70962,Newcastle International Airport,Newcastle,United Kingdom
NQY,EGDG,50.4364,-5.01373,St Mawgan Airport,Newquay,United Kingdom
XNO,KXNO,54.2,-1.26,,Northallerton,United Kingdom
ORM,EGBK,52.3,-0.78333,Sywell Airport,Northampton,United Kingdom
NWI,EGSH,52.6704,1.27648,Norwich Airport,Norwich,United Kingdom
GLA,EGPF,55.8646,-4.43234,Glasgow International Airport,Paisley,United Kingdom
PLH,EGHD,50.423,-4.11154,Roborough Airport,Plymouth,United Kingdom
PIK,EGPK,55.5091,-4.6109,Glasgow Prestwick International Airport,Prestwick,United Kingdom
SZD,EGSY,53.3957,-1.38232,Sheffield City Airport,Sheffield,United Kingdom
SOU,EGHI,50.9512,-1.36139,Southampton International Airport,Southampton,United Kingdom
ADX,EGQL,56.377,-2.86117,Leuchars Airport,St. Andrews,United Kingdom
JER,KJER,49.205,-2.19729,Jersey Airport,St. Peter,United Kingdom
GCI,EGJB,49.4341,-2.60003,Guernsey Airport,St. Peter Port,United Kingdom
ACI,EGJA,49.7134,-2.22089,The Blaye Airport,St. Peter Port,United Kingdom
STN,EGSS,51.8894,0.26151,London Stansted International Airport,Stansted Mountfitchet,United Kingdom
SWS,EGFH,51.6006,-4.07,Swansea Airport,Swansea,United Kingdom
ABR,KABR,45.4536,-98.4189,Aberdeen Regional Airport,Aberdeen,United States
ABI,KABI,32.4164,-99.6803,Abilene Regional Airport,Abilene,United States
ADK,PADK,51.88,-176.639,Adak Airport,Adak,United States
BQN,TJBQ,18.496,-67.1357,Rafael Hernandez Airport,Aguadilla,United States
ALM,KALM,32.8407,-105.994,Alamogordo White Sands Regional Airport,Alamogordo,United States
ALS,KALS,37.4444,-105.865,San Luis Valley Regional Airport,Alamosa,United States
ABY,KABY,31.5328,-84.1867,Southwest Georgia Regional Airport,Albany,United States
ABQ,KABQ,35.0494,-106.625,Albuquerque International Airport,Albuquerque,United States
RIV,KRIV,33.8806,-117.259,March Air Force Base,Alessandro,United States
AEX,KAEX,31.323,-92.5417,Alexandria International Airport,Alexandria,United States
ABE,KABE,40.6514,-75.4342,Lehigh Valley International Airport,Allentown,United States
AIA,KAIA,42.0622,-102.81,Alliance Municipal Airport,Alliance,United States
APN,KAPN,45.07,-83.5683,Alpena County Regional Airport,Alpena,United States
AMA,KAMA,35.2177,-101.706,Amarillo International Airport,Amarillo,United States
AKP,PAKP,68.1916,-151.79,Anaktuvuk Pass Airport,Anaktuvuk Pass,United States
ANC,PANC,61.1767,-149.961,Anchorage International Airport,Anchorage,United States
AGN,PAGN,57.4996,-134.577,Angoon Airport,Angoon,United States
ANV,PANV,62.65,-160.217,Anvik Airport,Anvik,United States
ATW,KATW,44.2603,-88.5111,Outagamie County Airport,Appleton,United States
ARC,PARC,68.1167,-145.583,Arctic Village Airport,Arctic Village,United States
DCA,KDCA,38.849,-77.0438,Washington National Airport,Arlington,United States
ASE,KASE,39.2197,-106.864,Aspen Pitkin County Airport-Sardy Field,Aspen,United States
ATL,KATL,33.6558,-84.4333,Hartsfield-Jackson Atlanta International Airport,Atlanta,United States
ATK,PATQ,70.4639,-157.331,Atqasuk Airport,Atqasuk,United States
AUG,KAUG,44.3181,-69.7933,Augusta State Airport,Augusta,United States
AGS,KAGS,33.3735,-81.9732,Bush Field Airport,Augusta,United States
AUS,KAUS,30.2027,-97.6653,Austin-Bergstrom International Airport,Austin,United States
BFL,KBFL,35.4288,-119.044,Kern County-Meadows Field Airport,Bakersfield,United States
BWI,KBWI,39.1841,-76.6745,Baltimore-Washington International Thurgood Mars,Baltimore,United States
BGR,KBGR,44.8086,-68.8167,Bangor International Airport,Bangor,United States
BRW,PABR,71.2892,-156.772,Wiley Post Will Rogers Memorial Airport,Barrow,United States
BOW,KBOW,27.9493,-81.7818,Bartow Municipal Airport,Bartow,United States
BTR,KBTR,30.533,-91.1567,Baton Rouge Metropolitan Airport,Baton Rouge,United States
BTL,KBTL,42.3046,-85.2448,W K Kellogg Airport,Battle Creek,United States
BPT,KBPT,29.9551,-94.0185,Jefferson County Airport,Beaumont,United States
WBQ,PAWB,66.359,-147.396,Alaska,Beaver,United States
BKW,KBKW,37.7849,-81.1174,Raleigh County Memorial Airport,Beaver,United States
BLV,KBLV,38.5412,-89.8499,Belleville,Belleville,United States
BLI,KBLI,48.7955,-122.532,Bellingham International Airport,Bellingham,United States
BJI,KBJI,47.5065,-94.9338,Bemidji-Beltrami County Airport,Bemidji,United States
XNA,KXNA,36.2756,-94.2955,Northwest Arkansas Regional Airport,Bentonville,United States
ANI,PANI,61.5742,-159.535,Aniak Airport,Bethel,United States
BET,PABE,60.7788,-161.847,Bethel Airport,Bethel,United States
BTT,PABT,66.9134,-151.551,Bettles Airport,Bettles,United States
BIL,KBIL,45.8034,-108.537,Logan International Airport,Billings,United States
BHM,KBHM,33.5604,-86.7492,Birmingham International Airport,Birmingham,United States
BIS,KBIS,46.7745,-100.757,Bismarck Municipal Airport,Bismarck,United States
BID,KBID,41.1696,-71.58,Block Island State Airport,Block Island,United States
BMI,KBMI,40.4841,-88.9134,Bloomington Normal Airport,Bloomington,United States
TRI,KTRI,36.4805,-82.4087,Tri-Cities Regional Airport,Blountville,United States
BOI,KBOI,43.5709,-116.222,Boise Air Terminal,Boise,United States
OVS,KOVS,43.1537,-90.6764,Boscobel Airport,Boscobel,United States
BOS,KBOS,42.3717,-71.0281,Gen E L Logan International Airport,Boston,United States
BZN,KBZN,45.7722,-111.157,Gallatin Field Airport,Bozeman,United States
BRD,KBRD,46.3909,-94.1413,Brainerd-Crow Wing County Regional Airport,Brainerd,United States
KPC,PAPC,65.2544,-166.856,Port Clarence Coast Guard Station,Brevig Mission,United States
BRO,KBRO,25.9064,-97.4321,Brownsville-South Padre Island International Air,Brownsville,United States
BQK,KBQK,31.2525,-81.4703,Glynco Jetport Airport,Brunswick,United States
BUF,KBUF,42.9309,-78.738,Greater Buffalo International Airport,Buffalo,United States
IFP,KIFP,35.1657,-114.557,Laughlin-Bullhead International Airport,Bullhead City,United States
BUR,KBUR,34.1963,-118.352,Burbank Glendale Pasadena Airport,Burbank,United States
BRL,KBRL,40.7816,-91.1197,Burlington Municipal Airport,Burlington,United States
BTM,KBTM,45.9544,-112.503,Bert Mooney Airport,Butte,United States
CAK,KCAK,40.9149,-81.4309,Akron Canton Regional Airport,Canton,United States
CNM,KCNM,32.3458,-104.251,Cavern City Air Terminal Airport,Carlsbad,United States
CLD,KCRQ,33.1255,-117.275,Mcclellan Palomar Airport,Carlsbad,United States
SJU,TJSJ,18.4367,-66.0095,Luis Munoz Marin Airport,Carolina,United States
CPR,KCPR,42.8966,-106.465,Natrona County International Airport,Casper,United States
CDC,KCDC,37.6992,-113.092,Cedar City Municipal Airport,Cedar City,United States
CID,KCID,41.8893,-91.7008,Cedar Rapids Municipal Airport,Cedar Rapids,United States
MFR,KMFR,42.3691,-122.874,Rogue Valley International-Medford Airport,Central Point,United States
CDR,KCDR,42.8284,-103.094,Chadron Municipal Airport,Chadron,United States
CRW,KCRW,38.3697,-81.5951,Yeager Airport,Charleston,United States
CLT,KCLT,35.2226,-80.946,Douglas International Airport,Charlotte,United States
STT,TIST,18.3333,-64.9667,Cyril E King International Airport,Charlotte Amalie,United States
SPB,KSPB,18.3409,-64.9698,St Thomas Seaplane Base,Charlotte Amalie,United States
CHA,KCHA,35.0373,-85.1966,Chattanooga Metropolitan Airport,Chattanooga,United States
CYS,KCYS,41.1527,-104.819,Cheyenne Airport,Cheyenne,United States
MDW,KMDW,41.7875,-87.7416,Chicago Midway International Airport,Chicago,United States
ORD,KORD,41.9796,-87.8825,Chicago O'Hare International Airport,Chicago,United States
CIC,KCIC,39.7987,-121.854,Chico Municipal Airport,Chico,United States
KCQ,PAJC,56.3119,-158.362,Chignik Lake Airport,Chignik,United States
CHU,KCHU,61.5769,-159.244,Chuathbaluk,Chuathbaluk,United States
CKB,KCKB,39.2967,-80.2314,Benedum Airport,Clarksburg,United States
MCW,KMCW,43.153,-93.3361,Mason City Municipal Airport,Clear Lake,United States
PIE,KPIE,27.9065,-82.6924,St. Petersburg-Clearwater International Airport,Clearwater,United States
BKL,KBKL,41.5115,-81.6869,Burke Lakefront Airport,Cleveland,United States
CLE,KCLE,41.4115,-81.8339,Hopkins International Airport,Cleveland,United States
MLI,KMLI,41.4539,-90.5058,Quad City Airport,Coal Valley,United States
COD,KCOD,44.5134,-109.031,Yellowstone Regional Airport,Cody/Yellowstone,United States
CDB,PACD,55.2005,-162.705,Cold Bay Airport,Cold Bay,United States
CLL,KCLL,30.5938,-96.3685,Easterwood Field Airport,College Station,United States
COS,KCOS,38.7829,-104.697,City of Colorado Springs Municipal Airport,Colorado Springs,United States
COU,KCOU,38.8174,-92.2218,Columbia Regional Airport,Columbia,United States
CSG,KCSG,32.5184,-84.9401,Columbus Metropolitan Airport,Columbus,United States
GTR,KGTR,33.4516,-88.5876,Golden Triangle Regional Airport,Columbus,United States
CMH,KCMH,39.9974,-82.8877,Port Columbus International Airport,Columbus,United States
LCK,KLCK,39.8176,-82.936,Rickenbacker International Airport,Columbus,United States
PIT,KPIT,40.4914,-80.2328,Pittsburgh International Airport,Coraopolis,United States
CDV,PACV,60.4924,-145.475,Merle K Mudhole Smith Airport,Cordova,United States
CRP,KCRP,27.7747,-97.5019,Corpus Christi International Airport,Corpus Christi,United States
CEZ,KCEZ,37.3044,-108.63,Cortez-Montezuma County Airport,Cortez,United States
PSE,TJPS,18.0116,-66.5664,Mercedita Airport,Coto Laurel,United States
CEC,KCEC,41.7765,-124.237,Jack Mcnamara Field Airport,Crescent City,United States
CPX,TJCP,18.3204,-65.2929,Culebra Airport,Culebra,United States
DAL,KDAL,32.8439,-96.8496,Dallas Love Field Airport,Dallas,United States
DFW,KDFW,32.9222,-97.0409,Fort Worth International Airport,Dallas,United States
FLL,KFLL,26.0722,-80.1354,Fort Lauderdale Hollywood International Airport,Dania Beach,United States
DAY,KDAY,39.8968,-84.2207,James M Cox Dayton International Airport,Dayton,United States
DAB,KDAB,29.1874,-81.0615,Daytona Beach International Airport,Daytona Beach,United States
DEC,KDEC,39.8335,-88.8773,Decatur Airport,Decatur,United States
DRT,KDRT,29.3702,-100.918,Del Rio International Airport,Del Rio,United States
DEN,KDEN,39.8396,-104.672,Denver International Airport,Denver,United States
DSM,KDSM,41.5328,-93.6481,Des Moines International Airport,Des Moines,United States
DTW,KDTW,42.2327,-83.3412,Detroit Metropolitan Wayne County Airport,Detroit,United States
DVL,KDVL,48.108,-98.9037,Devils Lake Municipal Airport,Devils Lake,United States
ART,KART,43.9942,-76.0232,Watertown International Airport,Dexter,United States
DIK,KDIK,46.8035,-102.802,Dickinson Municipal Airport,Dickinson,United States
DLG,PADL,59.0445,-158.513,Dillingham Municipal Airport,Dillingham,United States
DDC,KDDC,37.7573,-99.9697,Dodge City Regional Airport,Dodge City,United States
DHN,KDHN,31.3144,-85.4487,Dothan Airport,Dothan,United States
DBQ,KDBQ,42.4047,-90.7037,Dubuque Regional Airport,Dubuque,United States
DLH,KDLH,46.838,-92.1781,Duluth International Airport,Duluth,United States
DRO,KDRO,37.1595,-107.751,Durango la Plata County Airport,Durango,United States
EGV,KEGV,45.932,-89.2599,Eagle River Union Airport,Eagle River,United States
CHO,KCHO,38.14,-78.4487,Charlottesville Albemarle Airport,Earlysville,United States
HVN,KHVN,41.2709,-72.89,Tweed New Haven Airport,East Haven,United States
EAT,KEAT,47.4048,-120.21,Pangborn Memorial Airport,East Wenatchee,United States
ESD,KORS,48.7073,-122.909,Orcas Island Airport,Eastsound,United States
EAU,KEAU,44.8625,-91.4826,Eau Claire County Airport,Eau Claire,United States
EGX,PAII,58.2101,-157.366,Egegik Airport,Egegik,United States
ACY,KACY,39.4512,-74.5716,Atlantic City International Airport,Egg Harbor City,United States
VPS,KVPS,30.496,-86.55,Eglin Air Force Base,Eglin Village,United States
ELP,KELP,31.7982,-106.393,El Paso International Airport,El Paso,United States
EKO,KEKO,40.829,-115.78,Elko Municipal Airport-J C Harris Field,Elko,United States
BHB,KBHB,44.4461,-68.3615,Hancock County-Bar Harbor Airport,Ellsworth,United States
ELY,KELY,39.3043,-114.853,Yelland Field Airport,Ely,United States
APA,KAPA,39.5752,-104.845,Centennial Airport,Englewood,United States
ERI,KERI,42.0829,-80.1824,Erie International Airport,Erie,United States
ESC,KESC,45.718,-87.0942,Delta County Airport,Escanaba,United States
EUG,KEUG,44.1184,-123.213,Mahlon Sweet Field Airport,Eugene,United States
EVV,KEVV,38.0464,-87.5308,Evansville Regional Airport,Evansville,United States
FAI,PAFA,64.8183,-147.866,Fairbanks International Airport,Fairbanks,United States
CDW,KCDW,40.8759,-74.2775,Essex County Airport,Fairfield,United States
FAR,KFAR,46.9195,-96.8243,Hector International Airport,Fargo,United States
FMN,KFMN,36.7387,-108.227,Four Corners Regional Airport,Farmington,United States
FAY,KFAY,34.9914,-78.8889,Fayetteville Regional Airport,Fayetteville,United States
FLG,KFLG,35.139,-111.675,Flagstaff Pulliam Airport,Flagstaff,United States
AVL,KAVL,35.4349,-82.5373,Asheville Regional Airport,Fletcher,United States
FNT,KFNT,42.9756,-83.7411,Bishop International Airport,Flint,United States
FLO,KFLO,34.1936,-79.7289,Florence Regional Airport,Florence,United States
LGA,KLGA,40.7731,-73.8756,LaGuardia Airport,Flushing,United States
FOD,KFOD,42.5523,-94.1819,Fort Dodge Regional Airport,Fort Dodge,United States
TBN,KTBN,37.7327,-92.1361,Waynesville Regional Airport At Forney Field,Fort Leonard Wood,United States
FMY,KFMY,26.5815,-81.862,Page Field Airport,Fort Myers,United States
RSW,KRSW,26.5228,-81.7531,Southwest Florida International Airport,Fort Myers,United States
FSM,KFSM,36.1881,-94.4944,Smith Field Airport,Fort Smith,United States
FWA,KFWA,40.9883,-85.1899,Fort Wayne Municipal Airport-Baer Field,Fort Wayne,United States
FYU,PFYU,66.5714,-145.25,Fort Yukon Airport,Fort Yukon,United States
FKL,KFKL,41.3766,-79.8573,Chess Lamberton Airport,Franklin,United States
STX,TISX,17.6988,-64.7977,Henry E Rohlson International Airport,Frederiksted,United States
MBS,KMBS,43.5311,-84.0933,MBS International Airport,Freeland,United States
FAT,KFAT,36.7675,-119.717,Fresno Yosemite International Airport,Fresno,United States
FRD,KFHR,48.5252,-123.027,Friday Harbor Airport,Friday Harbor,United States
GNV,KGNV,29.6861,-82.277,Gainesville Regional Airport,Gainesville,United States
GAL,PAGA,64.7404,-156.931,Galena Airport,Galena,United States
GAM,PAGM,63.7667,-171.738,Gambell Airport,Gambell,United States
GCC,KGCC,44.3465,-105.533,Gillette Campbell County Airport,Gillette,United States
SBA,KSBA,34.4255,-119.835,Santa Barbara Municipal Airport,Goleta,United States
GFK,KGFK,47.9494,-97.1762,Grand Forks Mark Andrews International Airport,Grand Forks,United States
GJT,KGJT,39.1217,-108.529,Walker Field Airport,Grand Junction,United States
GRR,KGRR,42.8841,-85.5307,Gerald R. Ford International Airport,Grand Rapids,United States
GBD,KGBD,38.352,-98.853,Great Bend Municipal Airport,Great Bend,United States
GTF,KGTF,47.482,-111.356,Great Falls International Airport,Great Falls,United States
GRB,KGRB,44.4923,-88.1274,Austin Straubel International Airport,Green Bay,United States
GSO,KGSO,36.1038,-79.9427,Triad International Airport,Greensboro,United States
GLH,KGLH,33.4819,-90.9903,Mid Delta Regional Airport,Greenville,United States
PGV,KPGV,35.6336,-77.3808,Pitt Greenville Airport,Greenville,United States
GSP,KGSP,34.8907,-82.2167,Greenville Spartanburg International Airport,Greer,United States
GPT,KGPT,30.4133,-89.072,Gulfport Biloxi Regional Airport,Gulfport,United States
GUC,KGUC,38.5356,-106.941,Gunnison County Airport,Gunnison,United States
GST,PAGS,58.4246,-135.707,Gustavus Airport,Gustavus,United States
EGE,KEGE,39.6395,-106.912,Eagle County Regional Airport,Gypsum,United States
GUM,PGUM,13.4833,144.796,Antonio B Won Pat International Airport,Hagåtña,United States
SUN,KSUN,43.5065,-114.301,Friedman Memorial Airport,Hailey,United States
HNS,PAHN,59.2439,-135.524,Haines Airport,Haines,United States
HNM,PHHN,20.7944,-156.015,Hana Airport,Hana,United States
CMX,KCMX,47.1689,-88.4942,Houghton County Memorial Airport,Hancock,United States
HRL,KHRL,26.2216,-97.663,Grande Valley International Airport,Harlingen,United States
HAE,KHAE,36.2306,-112.669,Havasupai,Havasupai,United States
HVR,KHVR,48.5461,-109.773,Havre City-County Airport,Havre,United States
HDN,KHDN,40.485,-107.219,Yampa Valley Airport,Hayden,United States
HYS,KHYS,38.8546,-99.2737,Hays Municipal Airport,Hays,United States
CVG,KCVG,39.0571,-84.6625,Greater Cincinnati International Airport,Hebron,United States
HLN,KHLN,46.6104,-111.99,Helena Regional Airport,Helena,United States
AHC,KAHC,40.2664,-120.151,Amedee Army Air Field,Herlong,United States
HIB,KHIB,47.3934,-92.8418,Chisholm Hibbing Airport,Hibbing,United States
ITO,PHTO,19.7126,-155.042,Hilo International Airport,Hilo,United States
HOB,KHOB,32.6929,-103.215,Lea County Regional Airport,Hobbs,United States
JEF,KJEF,38.593,-92.1652,Jefferson City Memorial Airport,Holts Summit,United States
HOM,PAHO,59.6408,-151.499,Homer Airport,Homer,United States
HNL,PHNL,21.3358,-157.919,Honolulu International Airport,Honolulu,United States
MKK,PHMK,21.1557,-157.094,Molokai Airport,Hoolehua,United States
HNH,PAOH,58.0966,-135.41,Hoonah Airport,Hoonah,United States
VAK,PAVA,61.5338,-165.584,Chevak Airport,Hooper Bay,United States
HPB,PAHP,61.5262,-166.142,Hooper Bay Airport,Hooper Bay,United States
ELM,KELM,42.1633,-76.8973,Elmira Corning Regional Airport,Horseheads,United States
IAH,KIAH,29.9784,-95.3424,George Bush Intercontinental Airport,Houston,United States
HOU,KHOU,29.6572,-95.2795,William P Hobby Airport,Houston,United States
HTS,KHTS,38.37,-82.5542,Tri State Walker Long Field Airport,Huntington,United States
HSV,KHSV,34.6492,-86.7767,Huntsville International Airport,Huntsville,United States
HON,KHON,44.3833,-98.2333,Howes,Huron,United States
HYA,KHYA,41.6667,-70.2863,Barnstable Boardman Polando Airport,Hyannis,United States
IDA,KIDA,43.5147,-112.068,Fanning Field Airport,Idaho Falls,United States
IGG,PAIG,59.3167,-155.9,Igiugig,Igiugig,United States
ILI,PAIL,59.7555,-154.918,Iliamna Airport,Iliamna,United States
IPL,KIPL,32.8332,-115.57,Imperial County Airport,Imperial,United States
IND,KIND,39.7322,-86.2707,Indianapolis International Airport,Indianapolis,United States
INL,KINL,48.5661,-93.3978,Falls International Airport,International Falls,United States
IYK,KIYK,35.6606,-117.816,Inyokern Airport,Inyokern,United States
IWD,KIWD,46.5208,-90.1344,Gogebic-Iron County Airport,Ironwood,United States
ITH,KITH,42.4898,-76.4627,Tompkins County Airport,Ithaca,United States
JAC,KJAC,43.6034,-110.736,Jackson Hole Airport,Jackson,United States
JKL,KJKL,37.5917,-83.315,Julian Carroll Airport,Jackson,United States
JAX,KJAX,30.4914,-81.676,Jacksonville International Airport,Jacksonville,United States
NIP,KNIP,30.2342,-81.6753,Jacksonville Naval Air Station,Jacksonville,United States
JFK,KJFK,40.6437,-73.79,John F Kennedy International Airport,Jamaica,United States
JHW,KJHW,42.1528,-79.2666,Chautauqua County-Jamestown Airport,Jamestown,United States
JMS,KJMS,46.9243,-98.6788,Jamestown Municipal Airport,Jamestown,United States
BGM,KBGM,42.2082,-75.9825,Greater Binghamton Edwin A Link Field Airport,Johnson City,United States
JST,KJST,40.3208,-78.8306,Johnstown Cambria County Airport,Johnstown,United States
JNU,PAJN,58.3598,-134.583,Juneau International Airport,Juneau,United States
OGG,PHOG,20.8926,-156.441,Kahului Airport,Kahului,United States
KOA,PHKO,19.7334,-156.039,Kailua-Kona International Airport,Kailua Kona,United States
BTI,PABA,70.1478,-143.579,Barter Island Airport,Kaktovik,United States
AZO,KAZO,42.2398,-85.5563,Kalamazoo-Battle Creek International Airport,Kalamazoo,United States
LUP,PHLU,21.2077,-156.976,Kalaupapa Airport,Kalaupapa,United States
FCA,KFCA,48.3075,-114.252,Glacier Park International Airport,Kalispell,United States
KLG,PALG,61.5382,-160.314,Kalskag,Kalskag,United States
KAL,PAKV,64.3248,-158.725,Kaltag,Kaltag,United States
MUE,PHMU,19.9983,-155.675,Waimea Kohala Airport,Kamuela,United States
MKC,KMKC,39.1197,-94.5906,Kansas City Downtown Airport,Kansas City,United States
MCI,KMCI,39.2992,-94.7171,Kansas City International Airport,Kansas City,United States
EAR,KEAR,40.7236,-99.0151,Kearney Municipal Airport,Kearney,United States
ENA,PAEN,60.5651,-151.244,Kenai Municipal Airport,Kenai,United States
MSY,KMSY,29.983,-90.2569,New Orleans International Airport,Kenner,United States
ENW,KENW,42.5934,-87.9299,Kenosha Regional Airport,Kenosha,United States
KTN,PAKT,55.354,-131.706,Ketchikan International Airport,Ketchikan,United States
EYW,KEYW,24.5536,-81.7551,Key West International Airport,Key West,United States
IAN,PAIK,66.9699,-160.429,Kiana,Kiana,United States
GRK,KGRK,31.0615,-97.8206,Killeen-Fort Hood Regional Airport,Killeen,United States
CIU,KCIU,46.2581,-84.4739,Chippewa County International Airport,Kincheloe,United States
AKN,PAKN,58.6775,-156.655,King Salmon Airport,King Salmon,United States
IGM,KIGM,35.2692,-113.957,Kingman Airport,Kingman,United States
IMT,KIMT,45.8153,-88.1185,Ford Airport,Kingsford,United States
ISO,KISO,35.3243,-77.6115,Kinston Jetport Stallings Airport,Kinston,United States
KVL,PAVL,67.7333,-164.667,Kivalina,Kivalina,United States
LMT,KLMT,42.1638,-121.745,Klamath Falls International Airport,Klamath Falls,United States
TYS,KTYS,35.8064,-83.9889,Mcghee Tyson Airport,Knoxville,United States
AKK,PAKH,56.95,-154.167,Akhiok Airport,Kodiak,United States
KYK,PAKY,57.5645,-154.454,Karluk Airport,Kodiak,United States
ADQ,PADQ,57.7545,-152.512,Kodiak Airport,Kodiak,United States
OTZ,PAOT,66.8893,-162.61,Ralph Wien Memorial Airport,Kotzebue,United States
KKA,PAKK,64.9311,-161.16,Koyuk,Koyuk,United States
LSE,KLSE,43.8751,-91.2638,La Crosse Municipal Airport,La Crosse,United States
LFT,KLFT,30.2084,-91.9935,Lafayette Regional Airport,Lafayette,United States
JHM,PHJH,20.9619,-156.676,Kapalua West Maui Airport,Lahaina,United States
LCH,KLCH,30.1235,-93.2198,Lake Charles Regional Airport,Lake Charles,United States
LNY,PHNY,20.7909,-156.951,Lanai Airport,Lanai City,United States
LAN,KLAN,42.7728,-84.5888,Lansing Capital City Airport,Lansing,United States
LAR,KLAR,37.8527,-76.517,General Brees Field,Laramie,United States
LRD,KLRD,27.5431,-99.4555,Laredo International Airport,Laredo,United States
LAS,KLAS,36.0806,-115.143,Mccarran International Airport,Las Vegas,United States
ALB,KALB,42.7426,-73.809,Albany International Airport,Latham,United States
LBE,KLBE,40.2728,-79.4056,Westmoreland County Airport,Latrobe,United States
LAW,KLAW,34.573,-98.4135,Lawton Municipal Airport,Lawton,United States
BFD,KBFD,41.7964,-78.6407,Bradford Regional Airport,Lewis Run,United States
LWB,KLWB,37.8571,-80.4044,Greenbrier Valley Airport,Lewisburg,United States
LWS,KLWS,46.3776,-117.011,Lewiston Nez Perce County Airport,Lewiston,United States
LWT,KLWT,47.0552,-109.46,Lewistown Municipal Airport,Lewistown,United States
LEX,KLEX,38.0384,-84.5989,Blue Grass Field,Lexington,United States
LBL,KLBL,37.0446,-100.952,Liberal Municipal Airport,Liberal,United States
LIH,PHLI,21.9782,-159.351,Lihue Airport,Lihue,United States
LNK,KLNK,40.8461,-96.7543,Lincoln Municipal Airport,Lincoln,United States
LIT,KLIT,34.7278,-92.219,Adams Field Airport,Little Rock,United States
GGG,KGGG,32.3874,-94.7194,Gregg County Airport,Longview,United States
XVG,KXVG,46.9929,-94.2075,Longville Municipal Airport,Longville,United States
LAX,KLAX,33.9456,-118.391,Los Angeles International Airport,Los Angeles,United States
LOU,KLOU,38.2228,-85.6669,Bowman Field Airport,Louisville,United States
SDF,KSDF,38.1865,-85.7462,Louisville International Airport,Louisville,United States
FNL,KFNL,40.4505,-105.008,Fort Collins Loveland Municipal Airport,Loveland,United States
LBB,KLBB,33.6566,-101.821,Lubbock International Airport,Lubbock,United States
LYH,KLYH,37.3309,-79.1944,Lynchburg Regional Airport,Lynchburg,United States
MCN,KMCN,32.7023,-83.65,Middle Georgia Regional Airport,Macon,United States
MSN,KMSN,43.1351,-89.3465,Dane County Regional Airport-Truax Field,Madison,United States
MMH,KMMH,37.6288,-118.844,Mammoth June Lakes Airport,Mammoth Lakes,United States
MHT,KMHT,42.9293,-71.4386,Manchester-Boston Regional Airport,Manchester,United States
MHK,KMHK,39.1368,-96.6699,Manhattan Municipal Airport,Manhattan,United States
MBL,KMBL,44.2757,-86.2558,Manistee County-Blacker Airport,Manistee,United States
MLY,PAML,64.9812,-150.637,Manley Hot Springs,Manley Hot Springs,United States
MWA,KMWA,37.7467,-89.0104,Williamson County Regional Airport,Marion,United States
MQT,KSAW,46.3501,-87.3871,Sawyer International Airport,Marquette,United States
AOO,KAOO,40.2952,-78.324,Altoona-Blair County Airport,Martinsburg,United States
MSS,KMSS,44.9326,-74.8535,Massena International Airport,Massena,United States
MHR,KMHR,38.5646,-121.297,Mather Airport,Mather,United States
MAZ,TJMZ,18.2531,-67.1489,Eugenio Maria de Hostos Airport,Mayaguez,United States
MFE,KMFE,26.1813,-98.2404,Miller International Airport,Mcallen,United States
MYL,KMYL,44.8968,-116.096,Mccall Airport,Mccall,United States
MCK,KMCK,40.2071,-100.599,Mccook Municipal Airport,Mccook,United States
MCG,PAMC,62.9536,-155.603,Mcgrath Airport,Mcgrath,United States
ACV,KACV,40.9698,-124.108,Arcata Airport,Mckinleyville,United States
MYU,PAMY,60.3906,-166.191,Mekoryuk,Mekoryuk,United States
MLB,KMLB,28.0957,-80.6282,Melbourne International Airport,Melbourne,United States
MEM,KMEM,35.047,-89.9823,Memphis International Airport,Memphis,United States
MCE,KMCE,37.2892,-120.515,Merced Municipal Airport-Macready Field,Merced,United States
MEI,KMEI,32.3334,-88.7449,Key Field Airport,Meridian,United States
MIA,KMIA,25.7953,-80.2727,Miami International Airport,Miami,United States
MDT,KMDT,40.1962,-76.7564,Harrisburg International Airport,Middletown,United States
MAF,KMAF,31.9361,-102.208,Midland International Airport,Midland,United States
TGC,KTGC,35.9349,-88.8506,Gibson County Airport,Milan,United States
MKE,KMKE,42.9471,-87.9051,General Mitchell International Airport,Milwaukee,United States
MOT,KMOT,48.2554,-101.291,Minot International Airport,Minot,United States
MSO,KMSO,46.9192,-114.084,Missoula International Airport,Missoula,United States
MOB,KMOB,30.6775,-88.243,Mobile Regional Airport,Mobile,United States
MOD,KMOD,37.6319,-120.959,Modesto City County Airport-Harry Sham Field,Modesto,United States
MLU,KMLU,32.5099,-92.044,Monroe Regional Airport,Monroe,United States
MRY,KMRY,36.5872,-121.851,Monterey Peninsula Airport,Monterey,United States
MGM,KMGM,32.3049,-86.3909,Montgomery Regional Airport,Montgomery,United States
IPT,KIPT,41.2441,-76.9276,Williamsport-Lycoming County Airport,Montoursville,United States
MTJ,KMTJ,38.5003,-107.899,Montrose Regional Airport,Montrose,United States
MGW,KMGW,39.6411,-79.9241,Morgantown Municipal Airport-Hart Field,Morgantown,United States
PIB,KPIB,31.4671,-89.3333,Pine Belt Regional Airport,Moselle,United States
CWA,KCWA,44.7846,-89.6704,Central Wisconsin Airport,Mosinee,United States
MOU,PAMO,62.0833,-163.733,Mountain Village,Mountain Village,United States
MSL,KMSL,34.7439,-87.6185,Muscle Shoals Regional Airport,Muscle Shoals,United States
MKG,KMKG,43.1646,-86.2367,Muskegon County Airport,Muskegon,United States
MYR,KMYR,33.6821,-78.9228,Myrtle Beach International Airport,Myrtle Beach,United States
ACK,KACK,41.2568,-70.0649,Nantucket Memorial Airport,Nantucket,United States
APF,KAPF,26.1483,-81.7745,Naples Municipal Airport,Naples,United States
BNA,KBNA,36.1342,-86.6682,Nashville International Airport,Nashville,United States
EWB,KEWB,41.6735,-70.9579,New Bedford Municipal Airport,New Bedford,United States
EWN,KEWN,35.0786,-77.0343,Craven County Regional Airport,New Bern,United States
KNW,PANW,59.4513,-157.317,New Stuyahok,New Stuyahok,United States
SWF,KSWF,41.4869,-74.0974,Stewart International Airport,New Windsor,United States
JRB,KJRB,40.7039,-74.0129,Downtown Manhattan Heliport,New York,United States
EWR,KEWR,40.6924,-74.1843,Newark International Airport,Newark,United States
PHF,KPHF,37.1306,-76.5026,Newport News-Williamsburg International Airport,Newport News,United States
IAG,KIAG,43.1,-78.9423,Niagara Falls International Airport,Niagara Falls,United States
IKO,PAKO,52.9389,-168.868,Nikolski,Nikolski,United States
WTK,PAWN,62.8903,-149.054,Alaska,Noatak,United States
OME,PAOM,64.5125,-165.445,Nome Airport,Nome,United States
ORF,KORF,36.8977,-76.2154,Norfolk International Airport,Norfolk,United States
OTH,KOTH,43.4141,-124.244,North Bend Municipal Airport,North Bend,United States
CHS,KCHS,32.8838,-80.0356,Charleston International Airport,North Charleston,United States
RUT,KRUT,43.5291,-72.945,Rutland State Airport,North Clarendon,United States
LBF,KLBF,41.1333,-100.705,Lee Bird Field Airport,North Platte,United States
NUI,KNUI,70.2167,-150.917,Nuiqsut,Nuiqsut,United States
NUL,PANU,64.7134,-158.077,Nulato Airport,Nulato,United States
ONL,KONL,42.4655,-98.6866,The Oneill Municipal Airport,O'neill,United States
ODW,KOKH,48.2517,-122.68,Oak Harbor Airpark,Oak Harbor,United States
OAK,KOAK,37.7158,-122.209,Oakland International Airport,Oakland,United States
OGS,KOGS,44.6782,-75.4765,Ogdensburg International Airport,Ogdensburg,United States
OKC,KOKC,35.3981,-97.5974,Will Rogers World Airport,Oklahoma City,United States
OMA,KOMA,41.3,-95.8998,Eppley Airfield,Omaha,United States
ONT,KONT,34.062,-117.594,Ontario International Airport,Ontario,United States
OPF,KOPF,25.9023,-80.2677,Opa Locka Airport,Opa-Locka,United States
MCO,KMCO,28.4418,-81.3115,Orlando International Airport,Orlando,United States
RKD,KRKD,44.0612,-69.0943,Knox County Regional Airport,Owls Head,United States
OXR,KOXR,34.1984,-119.206,Oxnard Airport,Oxnard,United States
PGA,KPGA,36.9243,-111.451,Page Municipal Airport,Page,United States
PPG,NSTU,-14.3242,-170.706,Pago Pago International Airport,Pago Pago,United States
PSP,KPSP,33.8227,-116.509,Palm Springs International Airport,Palm Springs,United States
PMD,KPMD,34.6294,-118.084,Air Force Plant Nr 42 Palmdale,Palmdale,United States
PFN,KPFN,30.2071,-85.6829,Panama City Bay County Airport,Panama City,United States
PSC,KPSC,46.2592,-119.117,Tri Cities Airport,Pasco,United States
JAN,KJAN,32.3089,-90.0733,Jackson International Airport,Pearl,United States
PLN,KPLN,45.571,-84.7857,Pellston Regional Airport,Pellston,United States
PDT,KPDT,45.6893,-118.839,Eastern Oregon Regional Airport,Pendleton,United States
PNS,KPNS,30.4761,-87.1941,Pensacola Regional Airport,Pensacola,United States
PIA,KPIA,40.6663,-89.6909,Greater Peoria Regional Airport,Peoria,United States
PSG,PAPG,56.8067,-132.933,Petersburg James A Johnson Airport,Petersburg,United States
PHL,KPHL,39.8768,-75.2419,Philadelphia International Airport,Philadelphia,United States
AZA,KIWA,33.3078,-111.656,Phoenix-Mesa Gateway Airport,Phoenix,United States
PHX,KPHX,33.4376,-112.03,Sky Harbor International Airport,Phoenix,United States
GCK,KGCK,37.9267,-100.719,Garden City Regional Airport,Pierceville,United States
PIR,KPIR,44.3801,-100.293,Pierre Municipal Airport,Pierre,United States
AVP,KAVP,41.3354,-75.7294,Wilkes Barre Scranton International Airport,Pittston,United States
PTU,PAPM,58.9216,-161.727,Platinum,Platinum,United States
PBG,KPBG,44.6508,-73.4683,Plattsburgh Air Force Base,Plattsburgh,United States
PIH,KPIH,42.9056,-112.588,Pocatello Municipal Airport,Pocatello,United States
LUR,PALU,68.8482,-166.118,Cape Lisburne Long-Range Radar Station,Point Hope,United States
PHO,PAPO,68.3494,-166.797,Point Hope Airport,Point Hope,United States
PIZ,PPIZ,69.7333,-163.017,Dew Station,Point Lay,United States
CLM,KCLM,48.1155,-123.491,William R Fairchild International Airport,Port Angeles,United States
PTH,PAPH,56.9667,-158.633,Port Heiden Airport,Port Heiden,United States
PWM,KPWM,43.6475,-70.3103,Jetport International Airport,Portland,United States
PDX,KPDX,45.5867,-122.587,Portland International Airport,Portland,United States
PRC,KPRC,34.6492,-112.428,Ernest A Love Field Airport,Prescott,United States
PQI,KPQI,46.6921,-68.0447,Northern Maine Regional Airport,Presque Isle,United States
PVC,KPVC,42.0771,-70.2169,Provincetown Municipal Airport,Provincetown,United States
SCC,PASC,70.1975,-148.458,Deadhorse Airport,Prudhoe Bay,United States
PUB,KPUB,38.2836,-104.496,Pueblo Memorial Airport,Pueblo,United States
VQS,TJVQ,18.1355,-65.487,Aeropuerto Antonio Rivera Rodríguez,Puerto Ferro,United States
PUW,KPUW,46.743,-117.119,Pullman-Moscow Regional Airport,Pullman,United States
HPN,KHPN,41.0693,-73.7042,Westchester County Airport,Purchase,United States
UIN,KUIN,39.9348,-91.196,Quincy Municipal Airport-Baldwin Field,Quincy,United States
RDU,KRDU,35.8729,-78.7923,Durham International Airport,Raleigh/Durham,United States
RAP,KRAP,44.037,-103.06,Rapid City Regional Airport,Rapid City,United States
RDB,PADG,67.75,-163.667,Red Dog,Red Dog,United States
RDD,KRDD,40.5056,-122.302,Redding Municipal Airport,Redding,United States
RDM,KRDM,44.2533,-121.162,Roberts Field Airport,Redmond,United States
RNO,KRNO,39.5064,-119.776,Reno-Tahoe International Airport,Reno,United States
DUJ,KDUJ,41.1833,-78.8953,Du Bois Jefferson County Airport,Reynoldsville,United States
RHI,KRHI,45.626,-89.4626,Rhinelander-Oneida County Airport,Rhinelander,United States
OAJ,KOAJ,34.8307,-77.6053,Albert J Ellis Airport,Richlands,United States
RIC,KRIC,37.5108,-77.3332,Richmond International Airport,Richmond,United States
RIW,KRIW,43.0611,-108.458,Riverton Regional Airport,Riverton,United States
ROA,KROA,37.3203,-79.9688,Roanoke Regional Airport-Woodrum Field,Roanoke,United States
ROC,KROC,43.1309,-77.6697,Greater Rochester International Airport,Rochester,United States
RST,KRST,43.9101,-92.4884,Rochester International Airport,Rochester,United States
RKS,KRKS,41.5988,-109.072,Rock Springs-Sweetwater County Airport,Rock Springs,United States
RFD,KRFD,42.2035,-89.0955,Greater Rockford Airport,Rockford,United States
ISP,KISP,40.7891,-73.0984,Long Island Macarthur Airport,Ronkonkoma,United States
ROW,KROW,33.3071,-104.519,Roswell Industrial Air Center,Roswell,United States
ROP,PGRO,14.1667,145.25,Rota International Airport,Rota,United States
RBY,PARY,64.7381,-155.489,Ruby Airport,Ruby,United States
RSH,PARS,61.7833,-161.333,Russian,Russian Mission,United States
SMF,KSMF,38.683,-121.591,Sacramento International Airport,Sacramento,United States
KSM,PASM,62.0503,-163.179,Alaska,Saint Marys,United States
SNP,PASN,57.1667,-170.217,Saint Paul Island,Saint Paul Island,United States
SPN,PGSN,15.1333,145.717,Saipan International Airport,Saipan,United States
SLE,KSLE,44.9104,-123.008,Mcnary Field Airport,Salem,United States
SLN,KSLN,38.7786,-97.6397,Salina Municipal Airport,Salina,United States
SBY,KSBY,38.3431,-75.517,Salisbury-Wicomico County Regional Airport,Salisbury,United States
SMN,KSMN,45.1148,-113.888,Lemhi County Airport,Salmon,United States
SLC,KSLC,40.7862,-111.982,Salt Lake City International Airport,Salt Lake City,United States
SJT,KSJT,31.3616,-100.507,Mathis Field Airport,San Angelo,United States
SAT,KSAT,29.5252,-98.4729,San Antonio International Airport,San Antonio,United States
SAN,KSAN,32.7299,-117.195,San Diego International Airport,San Diego,United States
SFO,KSFO,37.6148,-122.392,San Francisco International Airport,San Francisco,United States
SJC,KSJC,37.3679,-121.926,Norman Y Mineta San Jose International Airport,San Jose,United States
SIG,TJIG,18.4558,-66.0981,Isla Grande Airport,San Juan,United States
SBP,KSBP,35.239,-120.641,San Luis Obispo County Airport,San Luis Obispo,United States
SDP,PASD,55.3184,-160.523,Sand Point Airport,Sand Point,United States
SFB,KSFB,28.773,-81.2403,Orlando Sanford International Airport,Sanford,United States
SNA,KSNA,33.6813,-117.859,John Wayne Airport,Santa Ana,United States
SMX,KSMX,34.8888,-120.437,Santa Maria Public Airport,Santa Maria,United States
SLK,KSLK,44.3804,-74.2038,Adirondack Regional Airport,Saranac Lake,United States
SRQ,KSRQ,27.3868,-82.5516,Sarasota Bradenton Airport,Sarasota,United States
SAV,KSAV,32.1338,-81.2133,Savannah International Airport,Savannah,United States
SVA,PASA,63.6951,-170.465,Alaska,Savoonga,United States
CMI,KCMI,40.0367,-88.2638,University of Illinois-Willard Airport,Savoy,United States
CGI,KCGI,37.2272,-89.5637,Cape Girardeau Municipal Airport,Scott City,United States
BFF,KBFF,41.8683,-103.597,William B Heilig Field Airport,Scottsbluff,United States
BFI,KBFI,47.5369,-122.304,King County International Airport-Boeing Field,Seattle,United States
SEA,KSEA,47.4405,-122.296,Tacoma International Airport,Seattle,United States
WLK,PASK,62.8903,-149.054,Alaska,Selawik,United States
SOV,PASO,59.4428,-151.705,,Seldovia,United States
SHR,KSHR,44.7739,-106.97,Sheridan County Airport,Sheridan,United States
SHH,PASH,66.2568,-166.067,Shishmaref,Shishmaref,United States
SOW,KSOW,34.2595,-110.005,Show Low Municipal Airport,Show Low,United States
SHV,KSHV,32.4549,-93.8285,Shreveport Regional Airport,Shreveport,United States
SHG,PAHG,66.8801,-157.067,Shungnak Airport,Shungnak,United States
SDY,KSDY,47.7113,-104.184,Sidney Richland Municipal Airport,Sidney,United States
SVC,KSVC,32.6301,-108.164,Silver City-Grant County Airport,Silver City,United States
SUX,KSUX,42.4012,-96.3784,Sioux Gateway Airport,Sioux City,United States
FSD,KFSD,43.5813,-96.7317,Sioux Falls Regional Airport,Sioux Falls,United States
SIT,PASI,57.0535,-135.366,Sitka Airport,Sitka,United States
SGY,PAGY,59.4594,-135.314,Skagway Airport,Skagway,United States
SLQ,PASL,61.7,-157.117,Sleetmute Airport,Sleetmute,United States
SBN,KSBN,41.7006,-86.311,South Bend Regional Airport,South Bend,United States
BTV,KBTV,44.4688,-73.1552,Burlington International Airport,South Burlington,United States
GEG,KGEG,47.625,-117.538,Spokane International Airport,Spokane,United States
SPI,KSPI,39.8445,-89.672,Capital Airport,Springfield,United States
SGF,KSGF,37.243,-93.3817,Springfield Regional Airport,Springfield,United States
STC,KSTC,45.5463,-94.066,St Cloud Regional Airport,St. Cloud,United States
SGU,KSGU,37.0973,-113.591,St George Municipal Airport,St. George,United States
STL,KSTL,38.7414,-90.3647,Lambert St Louis International Airport,St. Louis,United States
MSP,KMSP,44.8793,-93.1987,Minneapolis St Paul International Airport,St. Paul,United States
SCE,KUNV,40.8515,-77.851,University Park Airport,State College,United States
SWO,KSWO,36.1618,-97.0751,Stillwater Municipal Airport,Stillwater,United States
SCK,KSCK,37.8973,-121.253,Stockton Metropolitan Airport,Stockton,United States
BDR,KBDR,41.1636,-73.1283,Igor I Sikorsky Memorial Airport,Stratford,United States
TOL,KTOL,41.5923,-83.8072,Toledo Express Airport,Swanton,United States
SYR,KSYR,43.1141,-76.1121,Hancock International Airport,Syracuse,United States
TLH,KTLH,30.3964,-84.3503,Tallahassee Regional Airport,Tallahassee,United States
TPA,KTPA,27.9744,-82.5356,Tampa International Airport,Tampa,United States
TAL,PATA,47.7184,-115.431,Ralph Calhoun,Tanana,United States
TLJ,PATL,44.2044,23.5396,,Tatalina,United States
TLA,PATE,65.2413,-166.331,Teller,Teller,United States
TEX,KTEX,37.9544,-107.901,Telluride Regional Airport,Telluride,United States
TEB,KTEB,40.8541,-74.0662,Teterboro Airport,Teterboro,United States
TXK,KTXK,33.457,-93.9943,Texarkana Regional Airport,Texarkana,United States
CVN,KCVN,34.4271,-103.087,Clovis Municipal Airport,Texico,United States
TVF,KTVF,48.0655,-96.1791,Thief River Falls Regional Airport,Thief River Falls,United States
CNY,KCNY,38.7609,-109.742,Canyonlands Field Airport,Thompson,United States
TNC,PATC,65.5639,-167.919,Tin City AFS,Tin City,United States
TOG,PATG,37.1198,-89.8786,Togiak Village,Togiak Village,United States
EAA,PAEA,64.7667,-141.15,Eagle Airport,Tok,United States
TKJ,PATJ,48.1205,21.4125,,Tok,United States
OOK,PAOO,60.5334,-165.114,Toksook Bay,Toksook Bay,United States
TVC,KTVC,44.7365,-85.5796,Cherry Capital Airport,Traverse City,United States
TUS,KTUS,32.1204,-110.936,Tucson International Airport,Tucson,United States
TUL,KTUL,36.1877,-95.8892,Tulsa International Airport,Tulsa,United States
TUP,KTUP,34.2662,-88.766,Tupelo Municipal-C D Lemons Airport,Tupelo,United States
TWF,KTWF,42.4838,-114.485,Twin Falls-Sun Valley Regional Airport,Twin Falls,United States
TYR,KTYR,32.3506,-95.4118,Tyler Pounds Field Airport,Tyler,United States
UNK,PAUN,63.8833,-160.783,Unalakleet,Unalakleet,United States
DUT,PADU,53.896,-166.535,Unalaska Airport,Unalaska,United States
VDZ,PAVD,61.1294,-146.256,Valdez Airport,Valdez,United States
VLD,KVLD,30.7892,-83.2787,Valdosta Regional Airport,Valdosta,United States
VEL,KVEL,40.4485,-109.514,Vernal Airport,Vernal,United States
VCT,KVCT,28.8449,-96.9201,Victoria Regional Airport,Victoria,United States
VCV,KVCV,34.588,-117.373,Southern California Logistics Airport,Victorville,United States
YNG,KYNG,41.2576,-80.6648,Youngstown-Warren Regional Airport,Vienna,United States
MVY,KMVY,41.3895,-70.6112,Marthas Vineyard Airport,Vineyard Haven,United States
VIS,KVIS,36.3253,-119.394,Visalia Municipal Airport,Visalia,United States
ACT,KACT,31.609,-97.2234,Waco Regional Airport,Waco,United States
AIN,PAWT,70.6139,-159.857,Wainwright Airport,Wainwright,United States
ALW,KALW,46.0879,-118.283,Walla Walla Regional Airport,Walla Walla,United States
PVD,KPVD,41.723,-71.4399,Theodore Francis Green State Airport,Warwick,United States
IAD,KIAD,38.9556,-77.4484,Dulles International Airport,Washington,United States
ALO,KALO,42.5509,-92.3951,Waterloo Municipal Airport,Waterloo,United States
ATY,KATY,44.9216,-97.1609,Watertown Municipal Airport,Watertown,United States
LUF,KLUF,33.5355,-112.372,Luke Air Force Base,Webb,United States
JLN,KJLN,37.147,-94.5019,Joplin Regional Airport,Webb City,United States
CAE,KCAE,33.9468,-81.1241,Columbia Metropolitan Airport,West Columbia,United States
LEB,KLEB,43.6249,-72.3087,Lebanon Municipal Airport,West Lebanon,United States
PAH,KPAH,37.0612,-88.7672,Barkley Regional Airport,West Paducah,United States
PBI,KPBI,26.6909,-80.0889,Palm Beach International Airport,West Palm Beach,United States
WYS,KWYS,44.6876,-111.114,Yellowstone Airport,West Yellowstone,United States
WST,KWST,41.3492,-71.8115,Westerly State Airport,Westerly,United States
SHD,KSHD,38.2637,-78.9013,Shenandoah Valley Regional Airport,Weyers Cave,United States
PWK,KPWK,42.1162,-87.8987,Pal Waukee Airport,Wheeling,United States
ICT,KICT,37.6531,-97.43,Wichita Mid-Continent Airport,Wichita,United States
SPS,KSPS,33.9862,-98.4984,Sheppard Air Force Base,Wichita Falls,United States
PKB,KPKB,39.3462,-81.4345,Wood County Airport-Gill Robb Wilson Field,Williamstown,United States
ISN,KISN,48.1767,-103.631,Sloulin Field International Airport,Williston,United States
ILN,KILN,39.4348,-83.7982,Airborne Airpark,Wilmington,United States
ILM,KILM,34.2668,-77.912,Wilmington International Airport,Wilmington,United States
STS,KSTS,38.511,-122.805,Sonoma County Airport,Windsor,United States
BDL,KBDL,41.9271,-72.6816,Bradley International Airport,Windsor Locks,United States
INT,KINT,36.1361,-80.2294,Smith Reynolds Airport,Winston-Salem,United States
OLF,KOLF,48.0964,-105.575,L. M. Clayton Airport,Wolf Point,United States
ARV,KARV,45.9296,-89.7371,Lakelan-Noble F. Lee Memerial Field Airport,Woodruff,United States
ORH,KORH,42.2699,-71.8706,Worcester Municipal Airport,Worcester,United States
WRL,KWRL,43.9747,-107.953,Worland Municipal Airport,Worland,United States
WRG,PAWG,56.4876,-132.378,Wrangell Airport,Wrangell,United States
YKM,KYKM,46.5703,-120.54,Yakima Air Terminal,Yakima,United States
YAK,PAYA,59.5103,-139.668,Yakutat Airport,Yakutat,United States
YIP,KYIP,42.2385,-83.5467,Willow Run Airport,Ypsilanti,United States
YUM,KYUM,32.6685,-114.599,Yuma International Airport,Yuma,United States
ZUN,KZUN,35.0843,-108.789,Black Rock Airport,Zuni,United States
MVD,SUMU,-34.8291,-56.0323,Carrasco International Airport,Montevideo,Uruguay
PDP,SULS,-34.9111,-54.9197,Maldonado Airport,Punta del Este,Uruguay
AZN,UTKA,40.7324,72.2931,Andizhan Airport,Andijon,Uzbekistan
BHK,UTSB,39.7948,64.4895,Bukhara Airport,Bukhara,Uzbekistan
TAS,UTTT,41.2552,69.2846,Tashkent South Airport,Tashkent,Uzbekistan
AWD,NVVB,-19.2501,169.598,Aniwa Airport,Aniwa,Vanuatu
MTV,KMTV,-13.8167,167.7,Mota Lava,Mota Lava,Vanuatu
VLI,NVVV,-17.7039,168.312,Port Vila Bauerfield Airport,Port-Vila,Vanuatu
SLH,KSLH,-14.2459,167.509,Torba,Sola,Vanuatu
AGV,SVAC,9.55194,-69.2367,Acarigua,Acarigua,Venezuela
BNS,SVBI,8.6211,-70.2181,Barinas Airport,Barinas,Venezuela
BRM,SVBM,10.0453,-69.3561,Barquisimeto Airport,Barquisimeto,Venezuela
CCS,SVMI,10.6053,-66.9881,Simon Bolivar International Airport,Catia la Mar,Venezuela
PZO,SVPR,8.3,-62.7333,Puerto Ordaz Airport,Ciudad Guayana,Venezuela
CUM,SVCU,10.4539,-64.1297,Antonio Jose de Sucre Airport,Cumaná,Venezuela
CUP,SVCP,10.6589,-63.2625,Gen Jose Francisco Bermudez Airport,El Pilar,Venezuela
MAR,SVMC,10.5614,-71.7253,La Chinita International Airport,Maracaibo,Venezuela
PMV,KPMV,10.9167,-63.98,Del Caribe International Airport,Pampatar,Venezuela
BLA,SVBC,10.1103,-64.6872,Jose Antonio Anzoategui Airport,Pariaguán,Venezuela
SFD,KSFD,7.8856,-67.4406,San Fernando de Apure Airport,San Fernando de Apure,Venezuela
HAN,VVNB,21.2263,105.815,Noi Bai Airport,Hanoi,Vietnam
SGN,VVTS,10.8191,106.658,Tan Son Nhut Airport,Ho Chi Minh City,Vietnam
DAD,VVDN,16.05,108.2,Da Nang Airport,Tourane,Vietnam
AAY,OYGD,16.1947,52.1694,Al Gaidah Airport,Al Ghaydah,Yemen
SAH,OYSN,15.48,44.2208,Sanaa International Airport,Ar Raudha,Yemen
ADE,OYAA,12.8278,45.0306,Aden International Airport,Ash Shaykh Uthman,Yemen
LUN,FLLS,-15.3292,28.4528,Lusaka International Airport,Lusaka,Zambia
SLI,KSLI,-12.1722,26.3667,,Solwezi,Zambia
BUQ,FVBU,-20.0169,28.6181,Bulawayo Airport,Bulawayo,Zimbabwe
HRE,FVHA,-17.9228,31.1014,Harare International Airport,Harare,Zimbabwe
VFA,FVFA,-18.0931,25.8403,Victoria Falls Airport,,Zimbabwe
FLN,SBFL,-27.670278,-48.5525,Hercilio Luz International Airport,Florianopolis,Brazil
